{"type":"FeatureCollection","features":[{"type":"Feature","geometry":{"type":"MultiLineString","coordinates":[[[-105.96166,35.64703],[-105.96185,35.64703],[-105.96198,35.64703],[-105.96212,35.64702],[-105.96225,35.64701],[-105.96238,35.64699],[-105.96251,35.64697],[-105.96264,35.64694],[-105.96277,35.64691],[-105.9629,35.64687],[-105.96302,35.64682],[-105.96314,35.64677],[-105.96326,35.64672],[-105.96337,35.64666],[-105.96348,35.6466],[-105.96358,35.64653],[-105.96368,35.64645],[-105.96378,35.64638],[-105.96389,35.64631],[-105.964,35.64624],[-105.96405,35.64621],[-105.96411,35.64618],[-105.96417,35.64616],[-105.96423,35.64613],[-105.96435,35.64608],[-105.96448,35.64604],[-105.96461,35.64601],[-105.96475,35.64598],[-105.96573,35.64578],[-105.96738,35.64544]],[[-105.96734,35.64532],[-105.96568,35.64567],[-105.96496,35.64581],[-105.96461,35.64588],[-105.96448,35.64591],[-105.96441,35.64593],[-105.96435,35.64595],[-105.96423,35.64599],[-105.96411,35.64605],[-105.96397,35.64612],[-105.96389,35.64616],[-105.96382,35.6462],[-105.96378,35.64623],[-105.96368,35.6463],[-105.96358,35.64637],[-105.96347,35.64645],[-105.96337,35.64652],[-105.96326,35.64658],[-105.96314,35.64664],[-105.96302,35.64669],[-105.9629,35.64674],[-105.96277,35.64678],[-105.96264,35.64682],[-105.96247,35.64686],[-105.96238,35.64687],[-105.96224,35.64689],[-105.96211,35.6469],[-105.96197,35.64691],[-105.96184,35.64691]]]},"properties":{"id":"sf-zia-2400","label":"Zia Road, 2400 block","jurisdiction":"Santa Fe","street":"West Zia Road","status":"active","enforcement":["speed"],"maxspeed_mph":35,"maxspeed_source":"OpenStreetMap","last_confirmed":"2026-08-28","sources":[{"url":"https://www.santafenewmexican.com/news/local_news/santa-fe-speed-cameras-to-launch-monday/article_c67f0db4-aa74-4ad4-b168-987cba2af4e1.html","retrieved":"2026-09-20"}],"note":null,"anchor":[-105.96454,35.6459],"snap_distance_m":0.3,"schools_nearby":["Chaparral Elementary","Early College Opportunities"]}},{"type":"Feature","geometry":{"type":"MultiLineString","coordinates":[[[-105.98486,35.67028],[-105.98491,35.6702]],[[-105.98491,35.6702],[-105.98478,35.67025]],[[-105.98975,35.66712],[-105.98928,35.66754],[-105.98921,35.66759],[-105.98911,35.66767],[-105.98897,35.66779],[-105.98892,35.66785],[-105.98889,35.66788],[-105.98873,35.668],[-105.98859,35.66811],[-105.98842,35.6682],[-105.98827,35.66829],[-105.98816,35.66835],[-105.98808,35.66841],[-105.98786,35.66858],[-105.98769,35.66869],[-105.98738,35.66889],[-105.98734,35.66892],[-105.98684,35.66923],[-105.9865,35.66945],[-105.98634,35.66952],[-105.98618,35.66959],[-105.98597,35.66968],[-105.98577,35.66978],[-105.98552,35.66992],[-105.98529,35.67004],[-105.9852,35.67007],[-105.98511,35.6701],[-105.98491,35.6702]]]},"properties":{"id":"sf-aguafria-2600","label":"Agua Fr\u00eda Street, 2600 block","jurisdiction":"Santa Fe","street":"Agua Fria Street","status":"active","enforcement":["speed"],"maxspeed_mph":35,"maxspeed_source":"OpenStreetMap","last_confirmed":"2026-08-28","sources":[{"url":"https://www.santafenewmexican.com/news/local_news/santa-fe-speed-cameras-to-launch-monday/article_c67f0db4-aa74-4ad4-b168-987cba2af4e1.html","retrieved":"2026-09-20"}],"note":null,"anchor":[-105.9875,35.66881],"snap_distance_m":10.3,"schools_nearby":[]}},{"type":"Feature","geometry":{"type":"MultiLineString","coordinates":[[[-105.99336,35.63878],[-105.99224,35.63879],[-105.99117,35.63878],[-105.99039,35.63878],[-105.99037,35.63878],[-105.99024,35.63878],[-105.99009,35.63878]],[[-105.9901,35.6389],[-105.99024,35.6389],[-105.99038,35.6389],[-105.99039,35.6389],[-105.99117,35.6389],[-105.99225,35.6389],[-105.99258,35.6389],[-105.99341,35.6389],[-105.99357,35.6389],[-105.99393,35.6389]]]},"properties":{"id":"sf-rodeo-3200","label":"Rodeo Road, 3200 block","jurisdiction":"Santa Fe","street":"Rodeo Road","status":"active","enforcement":["speed"],"maxspeed_mph":35,"maxspeed_source":"OpenStreetMap","last_confirmed":"2026-08-28","sources":[{"url":"https://www.santafenewmexican.com/news/local_news/santa-fe-speed-cameras-to-launch-monday/article_c67f0db4-aa74-4ad4-b168-987cba2af4e1.html","retrieved":"2026-09-20"}],"note":null,"anchor":[-105.99304,35.63878],"snap_distance_m":2.5,"schools_nearby":[]}},{"type":"Feature","geometry":{"type":"MultiLineString","coordinates":[[[-106.06767,35.63262],[-106.06641,35.63279],[-106.06585,35.63287],[-106.06555,35.63291],[-106.06515,35.63296]],[[-106.06518,35.63308],[-106.06768,35.63273]]]},"properties":{"id":"sf-airport-7500","label":"Airport Road, 7500 block","jurisdiction":"Santa Fe","street":"Airport Road","status":"active","enforcement":["speed"],"maxspeed_mph":45,"maxspeed_source":"OpenStreetMap","last_confirmed":"2026-08-28","sources":[{"url":"https://www.santafenewmexican.com/news/local_news/santa-fe-speed-cameras-to-launch-monday/article_c67f0db4-aa74-4ad4-b168-987cba2af4e1.html","retrieved":"2026-09-20"}],"note":null,"anchor":[-106.06683,35.63274],"snap_distance_m":101.5,"schools_nearby":[]}},{"type":"Feature","geometry":{"type":"MultiLineString","coordinates":[[[-106.05478,35.62248],[-106.05465,35.62253],[-106.05444,35.62271],[-106.05417,35.62296],[-106.05385,35.62321],[-106.05312,35.62361],[-106.05292,35.62368],[-106.05241,35.62387],[-106.05194,35.62398],[-106.05154,35.62406],[-106.05143,35.62407],[-106.05111,35.6241]],[[-106.05478,35.62248],[-106.05503,35.62223],[-106.05533,35.62195],[-106.05586,35.62146],[-106.05611,35.62124]],[[-106.05145,35.62414],[-106.05156,35.62414],[-106.05196,35.62406],[-106.05243,35.62395],[-106.05296,35.62376],[-106.05317,35.62368],[-106.0539,35.62326],[-106.05425,35.62302],[-106.05451,35.62276],[-106.05471,35.62258],[-106.05478,35.62248]]]},"properties":{"id":"sf-jaguar-6700","label":"Jaguar Drive, 6700 block","jurisdiction":"Santa Fe","street":"Jaguar Drive","status":"active","enforcement":["speed"],"maxspeed_mph":30,"maxspeed_source":"OpenStreetMap","last_confirmed":"2026-08-28","sources":[{"url":"https://www.santafenewmexican.com/news/local_news/santa-fe-speed-cameras-to-launch-monday/article_c67f0db4-aa74-4ad4-b168-987cba2af4e1.html","retrieved":"2026-09-20"}],"note":null,"anchor":[-106.05397,35.62312],"snap_distance_m":8.3,"schools_nearby":[]}},{"type":"Feature","geometry":{"type":"MultiLineString","coordinates":[[[-106.06767,35.63262],[-106.06641,35.63279],[-106.06585,35.63287],[-106.06555,35.63291],[-106.06515,35.63296]],[[-106.06518,35.63308],[-106.06768,35.63273]],[[-106.06515,35.63296],[-106.06311,35.63324]],[[-106.06314,35.63337],[-106.06518,35.63308]]]},"properties":{"id":"sf-airport-constellation","label":"Airport Road at Constellation Drive","jurisdiction":"Santa Fe","street":"Airport Road","status":"announced","enforcement":["speed"],"maxspeed_mph":45,"maxspeed_source":"OpenStreetMap","last_confirmed":"2026-08-28","sources":[{"url":"https://www.santafenewmexican.com/news/local_news/santa-fe-speed-cameras-to-launch-monday/article_c67f0db4-aa74-4ad4-b168-987cba2af4e1.html","retrieved":"2026-09-20"}],"note":"reported as a setup location during installation","anchor":[-106.06517,35.63302],"snap_distance_m":null,"schools_nearby":[]}},{"type":"Feature","geometry":{"type":"MultiLineString","coordinates":[[[-105.99692,35.63878],[-105.99681,35.63878],[-105.99336,35.63878],[-105.99224,35.63879]],[[-105.99225,35.6389],[-105.99258,35.6389],[-105.99341,35.6389],[-105.99357,35.6389],[-105.99393,35.6389],[-105.99683,35.6389],[-105.99692,35.6389],[-105.99768,35.63889]]]},"properties":{"id":"sf-rodeo-pueblos","label":"Rodeo Road at Paseo de los Pueblos","jurisdiction":"Santa Fe","street":"Rodeo Road","status":"announced","enforcement":["speed"],"maxspeed_mph":35,"maxspeed_source":"OpenStreetMap","last_confirmed":"2026-08-28","sources":[{"url":"https://www.santafenewmexican.com/news/local_news/santa-fe-speed-cameras-to-launch-monday/article_c67f0db4-aa74-4ad4-b168-987cba2af4e1.html","retrieved":"2026-09-20"}],"note":"reported as a setup location during installation","anchor":[-105.99453,35.63884],"snap_distance_m":null,"schools_nearby":[]}},{"type":"Feature","geometry":{"type":"MultiLineString","coordinates":[[[-106.58659,35.0584],[-106.58669,35.05839],[-106.5868,35.05837],[-106.58721,35.05831],[-106.58728,35.0583],[-106.58739,35.05829],[-106.5877,35.05829],[-106.58858,35.05829],[-106.58867,35.0583],[-106.58876,35.0583],[-106.58949,35.0583],[-106.58968,35.0583],[-106.58991,35.0583],[-106.59088,35.0583]],[[-106.60428,35.05817],[-106.60414,35.05817],[-106.60134,35.05816],[-106.60121,35.05816],[-106.59525,35.05815],[-106.59309,35.05814],[-106.59087,35.05815],[-106.58876,35.05815],[-106.58864,35.05815],[-106.58853,35.05815],[-106.58763,35.05814],[-106.58737,35.05815],[-106.58707,35.05818],[-106.58663,35.05824]],[[-106.60424,35.05832],[-106.60431,35.05832]],[[-106.59088,35.0583],[-106.59309,35.05828],[-106.59525,35.0583],[-106.60121,35.05829],[-106.60136,35.05829],[-106.60221,35.05829],[-106.60297,35.0583],[-106.60335,35.0583],[-106.60372,35.05831],[-106.60406,35.05831],[-106.60413,35.05831],[-106.60424,35.05832]]]},"properties":{"id":"abq-gibson-between-carlisle-and-san-mateo-eastbound","label":"Gibson between Carlisle and San Mateo (eastbound), live 4/25/2022","jurisdiction":"Albuquerque","street":"Gibson","status":"active","enforcement":["speed"],"maxspeed_mph":40,"maxspeed_source":"OpenStreetMap","last_confirmed":"2022-04-25","sources":[{"url":"https://www.cabq.gov/automated-speed-enforcement","retrieved":"2026-09-20","note":"city-published list"}],"note":"eastbound; live since 2022-04-25","anchor":[-106.59541,35.05829],"snap_distance_m":null,"schools_nearby":["Cesar Chavez Community  School","Kirtland Elementary"]}},{"type":"Feature","geometry":{"type":"MultiLineString","coordinates":[[[-106.58659,35.0584],[-106.58669,35.05839],[-106.5868,35.05837],[-106.58721,35.05831],[-106.58728,35.0583],[-106.58739,35.05829],[-106.5877,35.05829],[-106.58858,35.05829],[-106.58867,35.0583],[-106.58876,35.0583],[-106.58949,35.0583],[-106.58968,35.0583],[-106.58991,35.0583],[-106.59088,35.0583]],[[-106.60428,35.05817],[-106.60414,35.05817],[-106.60134,35.05816],[-106.60121,35.05816],[-106.59525,35.05815],[-106.59309,35.05814],[-106.59087,35.05815],[-106.58876,35.05815],[-106.58864,35.05815],[-106.58853,35.05815],[-106.58763,35.05814],[-106.58737,35.05815],[-106.58707,35.05818],[-106.58663,35.05824]],[[-106.60424,35.05832],[-106.60431,35.05832]],[[-106.59088,35.0583],[-106.59309,35.05828],[-106.59525,35.0583],[-106.60121,35.05829],[-106.60136,35.05829],[-106.60221,35.05829],[-106.60297,35.0583],[-106.60335,35.0583],[-106.60372,35.05831],[-106.60406,35.05831],[-106.60413,35.05831],[-106.60424,35.05832]]]},"properties":{"id":"abq-gibson-between-carlisle-and-san-mateo-westbound","label":"Gibson between Carlisle and San Mateo (westbound), live 4/25/2022","jurisdiction":"Albuquerque","street":"Gibson","status":"active","enforcement":["speed"],"maxspeed_mph":40,"maxspeed_source":"OpenStreetMap","last_confirmed":"2022-04-25","sources":[{"url":"https://www.cabq.gov/automated-speed-enforcement","retrieved":"2026-09-20","note":"city-published list"}],"note":"westbound; live since 2022-04-25","anchor":[-106.59541,35.05829],"snap_distance_m":null,"schools_nearby":["Cesar Chavez Community  School","Kirtland Elementary"]}},{"type":"Feature","geometry":{"type":"MultiLineString","coordinates":[[[-106.72352,35.06521],[-106.7235,35.06508],[-106.72349,35.065],[-106.72345,35.06476]],[[-106.72345,35.06476],[-106.72341,35.06448],[-106.72341,35.06447],[-106.72339,35.06438]],[[-106.72339,35.06438],[-106.72337,35.06427],[-106.72336,35.06418],[-106.72335,35.06411],[-106.72334,35.06393],[-106.72334,35.06391]],[[-106.723,35.06333],[-106.72308,35.06392],[-106.72309,35.06401],[-106.72311,35.0642],[-106.72312,35.06429],[-106.72313,35.0644],[-106.72315,35.06448],[-106.72315,35.0645],[-106.72319,35.06471],[-106.7232,35.06478],[-106.72324,35.06514],[-106.7233,35.06561]]]},"properties":{"id":"abq-unser-at-tower-northbound-live-6-10-2022","label":"Unser at Tower (northbound), live 6/10/2022","jurisdiction":"Albuquerque","street":"Unser","status":"active","enforcement":["speed"],"maxspeed_mph":40,"maxspeed_source":"OpenStreetMap","last_confirmed":"2022-06-10","sources":[{"url":"https://www.cabq.gov/automated-speed-enforcement","retrieved":"2026-09-20","note":"city-published list"}],"note":"northbound; live since 2022-06-10","anchor":[-106.72338,35.06432],"snap_distance_m":null,"schools_nearby":[]}},{"type":"Feature","geometry":{"type":"MultiLineString","coordinates":[[[-106.58635,35.13028],[-106.58635,35.13037],[-106.58634,35.13081],[-106.58634,35.13091]],[[-106.58655,35.13091],[-106.58655,35.13081],[-106.58655,35.13066],[-106.58655,35.13053],[-106.58654,35.12997]],[[-106.58654,35.13204],[-106.58654,35.13199],[-106.58654,35.13144],[-106.58655,35.13116],[-106.58655,35.13108]],[[-106.58655,35.13108],[-106.58655,35.13091]],[[-106.58633,35.13108],[-106.58633,35.13117],[-106.58635,35.13198],[-106.58635,35.13202]],[[-106.58636,35.12999],[-106.58635,35.13028]],[[-106.58636,35.12986],[-106.58636,35.12999]],[[-106.58634,35.13091],[-106.58633,35.13108]]]},"properties":{"id":"abq-san-mateo-just-north-of-montgomery-southbound-li","label":"San Mateo just north of Montgomery (southbound), live 8/01/2022","jurisdiction":"Albuquerque","street":"San Mateo","status":"active","enforcement":["speed"],"maxspeed_mph":40,"maxspeed_source":"OpenStreetMap","last_confirmed":"2022-08-01","sources":[{"url":"https://www.cabq.gov/automated-speed-enforcement","retrieved":"2026-09-20","note":"city-published list"}],"note":"southbound; live since 2022-08-01","anchor":[-106.58634,35.13099],"snap_distance_m":null,"schools_nearby":["Del Norte High"]}},{"type":"Feature","geometry":{"type":"MultiLineString","coordinates":[[[-106.55069,35.08745],[-106.55081,35.08745],[-106.55104,35.08744],[-106.55134,35.08744],[-106.55193,35.08743]],[[-106.55193,35.08743],[-106.55245,35.08742],[-106.55252,35.08742],[-106.55323,35.08741]],[[-106.55323,35.08728],[-106.55251,35.08727],[-106.55193,35.08728]],[[-106.55193,35.08728],[-106.55153,35.08729],[-106.55133,35.08729],[-106.5508,35.0873],[-106.55069,35.08729]]]},"properties":{"id":"abq-lomas-at-virginia-westbound-live-8-01-2022","label":"Lomas at Virginia (westbound), live 8/01/2022","jurisdiction":"Albuquerque","street":"Lomas","status":"active","enforcement":["speed"],"maxspeed_mph":40,"maxspeed_source":"OpenStreetMap","last_confirmed":"2022-08-01","sources":[{"url":"https://www.cabq.gov/automated-speed-enforcement","retrieved":"2026-09-20","note":"city-published list"}],"note":"westbound; live since 2022-08-01","anchor":[-106.55223,35.08742],"snap_distance_m":null,"schools_nearby":[]}},{"type":"Feature","geometry":{"type":"MultiLineString","coordinates":[[[-106.62122,35.07549],[-106.62117,35.0755],[-106.62101,35.07552],[-106.62094,35.07552],[-106.62083,35.07552],[-106.62074,35.07552],[-106.62021,35.07551],[-106.6197,35.07551],[-106.61959,35.07551],[-106.61949,35.07551],[-106.61948,35.07551],[-106.61897,35.07551],[-106.61845,35.07551],[-106.61833,35.07551],[-106.61823,35.07551]]]},"properties":{"id":"abq-coal-at-cornell-eastbound-live-8-08-2022","label":"Coal at Cornell (eastbound), live 8/08/2022","jurisdiction":"Albuquerque","street":"Coal","status":"active","enforcement":["speed"],"maxspeed_mph":30,"maxspeed_source":"OpenStreetMap","last_confirmed":"2022-08-08","sources":[{"url":"https://www.cabq.gov/automated-speed-enforcement","retrieved":"2026-09-20","note":"city-published list"}],"note":"eastbound; live since 2022-08-08","anchor":[-106.61959,35.07551],"snap_distance_m":null,"schools_nearby":[]}},{"type":"Feature","geometry":{"type":"MultiLineString","coordinates":[[[-106.67773,35.09386],[-106.67764,35.09404],[-106.67753,35.09421]],[[-106.67829,35.09251],[-106.67815,35.09285],[-106.67811,35.09292],[-106.67796,35.0933]],[[-106.67761,35.09438],[-106.67769,35.0943],[-106.67773,35.09424],[-106.67783,35.09408],[-106.67795,35.09386],[-106.67814,35.09337],[-106.67815,35.09334],[-106.67818,35.09328],[-106.67831,35.09303],[-106.67847,35.09257],[-106.67854,35.09241]],[[-106.67753,35.09421],[-106.67751,35.09422],[-106.67744,35.09431]],[[-106.67796,35.0933],[-106.67773,35.09386]],[[-106.67854,35.09241],[-106.6786,35.09227],[-106.6787,35.09205],[-106.6788,35.09187],[-106.67888,35.09172],[-106.67896,35.09161],[-106.67916,35.09129],[-106.6792,35.09122]],[[-106.67904,35.0912],[-106.67873,35.09164],[-106.67863,35.09179],[-106.67852,35.092],[-106.67841,35.09221],[-106.67837,35.09229],[-106.67834,35.09237],[-106.67829,35.09251]]]},"properties":{"id":"abq-central-between-tingley-and-new-york-westbound-l","label":"Central between Tingley and New York (westbound), live 8/15/2022","jurisdiction":"Albuquerque","street":"Central","status":"active","enforcement":["speed"],"maxspeed_mph":30,"maxspeed_source":"OpenStreetMap","last_confirmed":"2022-08-15","sources":[{"url":"https://www.cabq.gov/automated-speed-enforcement","retrieved":"2026-09-20","note":"city-published list"}],"note":"westbound; live since 2022-08-15","anchor":[-106.67842,35.09279],"snap_distance_m":null,"schools_nearby":[]}},{"type":"Feature","geometry":{"type":"MultiLineString","coordinates":[[[-106.55431,35.13065],[-106.5542,35.13065]],[[-106.55585,35.13066],[-106.55503,35.13065]],[[-106.55424,35.13079],[-106.55503,35.13079]],[[-106.55503,35.13065],[-106.55431,35.13065]]]},"properties":{"id":"abq-montgomery-and-jennifer-westbound-live-3-13-2023","label":"Montgomery and Jennifer (westbound), live 3/13/2023","jurisdiction":"Albuquerque","street":"Montgomery","status":"active","enforcement":["speed"],"maxspeed_mph":40,"maxspeed_source":"OpenStreetMap","last_confirmed":"2023-03-13","sources":[{"url":"https://www.cabq.gov/automated-speed-enforcement","retrieved":"2026-09-20","note":"city-published list"}],"note":"westbound; live since 2023-03-13","anchor":[-106.55503,35.13079],"snap_distance_m":null,"schools_nearby":[]}},{"type":"Feature","geometry":{"type":"MultiLineString","coordinates":[[[-106.56467,35.13067],[-106.56386,35.13067]],[[-106.56386,35.1308],[-106.56436,35.1308]],[[-106.56386,35.13067],[-106.56303,35.13067],[-106.56247,35.13067],[-106.56224,35.13067]],[[-106.56381,35.1308],[-106.56386,35.1308]],[[-106.56346,35.1308],[-106.56381,35.1308]],[[-106.56224,35.13081],[-106.5626,35.13081],[-106.56346,35.1308]]]},"properties":{"id":"abq-montgomery-and-julie-eastbound-live-3-13-2023","label":"Montgomery and Julie (eastbound), live 3/13/2023","jurisdiction":"Albuquerque","street":"Montgomery","status":"active","enforcement":["speed"],"maxspeed_mph":40,"maxspeed_source":"OpenStreetMap","last_confirmed":"2023-03-13","sources":[{"url":"https://www.cabq.gov/automated-speed-enforcement","retrieved":"2026-09-20","note":"city-published list"}],"note":"eastbound; live since 2023-03-13","anchor":[-106.56386,35.1308],"snap_distance_m":null,"schools_nearby":["New Mexico International School"]}},{"type":"Feature","geometry":{"type":"MultiLineString","coordinates":[[[-106.74166,35.06355],[-106.74166,35.06365],[-106.74167,35.06391],[-106.74167,35.06397],[-106.74159,35.06469],[-106.74153,35.06535],[-106.74151,35.06573],[-106.74155,35.06626],[-106.74165,35.06692],[-106.74197,35.06928],[-106.74204,35.06983],[-106.74208,35.07001],[-106.74216,35.0704],[-106.74235,35.07122],[-106.74244,35.07164],[-106.74247,35.07182],[-106.74254,35.07218]],[[-106.74276,35.07251],[-106.74275,35.07245],[-106.7427,35.07201],[-106.74263,35.07143],[-106.74258,35.07123],[-106.74257,35.07117],[-106.74237,35.07039],[-106.74236,35.07034],[-106.7423,35.07],[-106.74226,35.06977],[-106.74187,35.06678],[-106.74178,35.06624],[-106.74173,35.06571],[-106.74175,35.06522],[-106.74181,35.06471],[-106.74183,35.06435],[-106.74186,35.06402],[-106.74187,35.06363],[-106.74188,35.06355]],[[-106.74254,35.07218],[-106.74258,35.07249],[-106.74259,35.07255]]]},"properties":{"id":"abq-98th-between-tower-and-central-northbound-live-3","label":"98th between Tower and Central (northbound), live 3/29/2023","jurisdiction":"Albuquerque","street":"98th","status":"active","enforcement":["speed"],"maxspeed_mph":45,"maxspeed_source":"OpenStreetMap","last_confirmed":"2023-03-29","sources":[{"url":"https://www.cabq.gov/automated-speed-enforcement","retrieved":"2026-09-20","note":"city-published list"}],"note":"northbound; live since 2023-03-29","anchor":[-106.74213,35.06807],"snap_distance_m":null,"schools_nearby":[]}},{"type":"Feature","geometry":{"type":"MultiLineString","coordinates":[[[-106.64251,35.0698],[-106.64303,35.06979],[-106.64311,35.06979],[-106.64318,35.06979]],[[-106.64318,35.06965],[-106.64311,35.06965],[-106.64302,35.06965],[-106.64191,35.06968],[-106.64162,35.06969],[-106.64068,35.06971],[-106.64054,35.06972]],[[-106.64055,35.06984],[-106.64069,35.06984],[-106.6413,35.06983],[-106.64164,35.06982],[-106.64192,35.06982],[-106.64251,35.0698]]]},"properties":{"id":"abq-avenida-cesar-chavez-and-walter-eastbound-live-4","label":"Avenida Cesar Chavez and Walter (eastbound), live 4/12/2023","jurisdiction":"Albuquerque","street":"Avenida Cesar Chavez","status":"active","enforcement":["speed"],"maxspeed_mph":35,"maxspeed_source":"OpenStreetMap","last_confirmed":"2023-04-12","sources":[{"url":"https://www.cabq.gov/automated-speed-enforcement","retrieved":"2026-09-20","note":"city-published list"}],"note":"eastbound; live since 2023-04-12","anchor":[-106.64191,35.06982],"snap_distance_m":null,"schools_nearby":["William W & Josephine Dorn Charter  Community School"]}},{"type":"Feature","geometry":{"type":"MultiLineString","coordinates":[[[-106.53257,35.07191],[-106.53257,35.07181],[-106.53257,35.07163],[-106.53257,35.07113]],[[-106.53247,35.07079],[-106.53241,35.07093],[-106.53241,35.07098]],[[-106.53239,35.07189],[-106.53239,35.072],[-106.53238,35.07209],[-106.53236,35.07247],[-106.53235,35.0727],[-106.53234,35.07286],[-106.53232,35.0732]],[[-106.53247,35.07064],[-106.53247,35.07079]],[[-106.53249,35.07319],[-106.53249,35.07314],[-106.53253,35.07257],[-106.53255,35.07212],[-106.53256,35.07202],[-106.53257,35.07191]],[[-106.53241,35.07098],[-106.53241,35.07137],[-106.53239,35.0718],[-106.53239,35.07189]],[[-106.53257,35.07113],[-106.53257,35.07093],[-106.53247,35.07079]]]},"properties":{"id":"abq-eubank-just-north-of-central-northbound-live-4-2","label":"Eubank just north of Central (northbound), live 4/26/2023","jurisdiction":"Albuquerque","street":"Eubank","status":"active","enforcement":["speed"],"maxspeed_mph":40,"maxspeed_source":"OpenStreetMap","last_confirmed":"2023-04-26","sources":[{"url":"https://www.cabq.gov/automated-speed-enforcement","retrieved":"2026-09-20","note":"city-published list"}],"note":"northbound; live since 2023-04-26","anchor":[-106.53256,35.07196],"snap_distance_m":null,"schools_nearby":[]}},{"type":"Feature","geometry":{"type":"MultiLineString","coordinates":[[[-106.65131,35.20995],[-106.65132,35.21012],[-106.65129,35.21029],[-106.65123,35.21044],[-106.65115,35.21058],[-106.65105,35.21069],[-106.65099,35.21077]],[[-106.65131,35.20995],[-106.65132,35.20992],[-106.65132,35.20988],[-106.65132,35.20984],[-106.65132,35.20979],[-106.65129,35.20971],[-106.65125,35.20962],[-106.6512,35.20954],[-106.65103,35.20927],[-106.65099,35.2092],[-106.65096,35.20916],[-106.65094,35.20911]],[[-106.65082,35.20914],[-106.65085,35.20919],[-106.65088,35.20925],[-106.65092,35.20932],[-106.65109,35.20956],[-106.65115,35.20966],[-106.6512,35.20974],[-106.65123,35.20979],[-106.65126,35.20986],[-106.65128,35.20991],[-106.65131,35.20995]]]},"properties":{"id":"abq-ellison-and-black-diversion-channel-trail-crossi","label":"Ellison and Black Diversion Channel Trail crossing (eastbound), live 5/05/2023","jurisdiction":"Albuquerque","street":"Ellison","status":"active","enforcement":["speed"],"maxspeed_mph":null,"maxspeed_source":"absent from OpenStreetMap","last_confirmed":"2023-05-05","sources":[{"url":"https://www.cabq.gov/automated-speed-enforcement","retrieved":"2026-09-20","note":"city-published list"}],"note":"eastbound; live since 2023-05-05","anchor":[-106.65124,35.21042],"snap_distance_m":null,"schools_nearby":[]}},{"type":"Feature","geometry":{"type":"MultiLineString","coordinates":[[[-106.64787,35.09093],[-106.64797,35.09094]],[[-106.64918,35.09097],[-106.64907,35.09095],[-106.64891,35.09093],[-106.64809,35.09083],[-106.64799,35.09081]],[[-106.64799,35.09081],[-106.6479,35.0908]],[[-106.65047,35.09113],[-106.65037,35.09112]],[[-106.64797,35.09094],[-106.64807,35.09096],[-106.64857,35.09102],[-106.64905,35.09108],[-106.64915,35.0911],[-106.64925,35.09111],[-106.64959,35.09115],[-106.65025,35.09124],[-106.65034,35.09125]],[[-106.65034,35.09125],[-106.65044,35.09126]],[[-106.65037,35.09112],[-106.65028,35.09111],[-106.64928,35.09098],[-106.64918,35.09097]]]},"properties":{"id":"abq-lomas-near-third-street-eastbound-live-5-12-2023","label":"Lomas near Third Street (eastbound), live 5/12/2023","jurisdiction":"Albuquerque","street":"Lomas","status":"active","enforcement":["speed"],"maxspeed_mph":30,"maxspeed_source":"OpenStreetMap","last_confirmed":"2023-05-12","sources":[{"url":"https://www.cabq.gov/automated-speed-enforcement","retrieved":"2026-09-20","note":"city-published list"}],"note":"eastbound; live since 2023-05-12","anchor":[-106.64915,35.0911],"snap_distance_m":null,"schools_nearby":["Abq Sign Language Academy","Lew Wallace Elementary"]}},{"type":"Feature","geometry":{"type":"MultiLineString","coordinates":[[[-106.55463,35.14711],[-106.5545,35.14697],[-106.55437,35.14682],[-106.55426,35.14666],[-106.55415,35.14651],[-106.55397,35.14624],[-106.55393,35.14616]],[[-106.55393,35.14616],[-106.55385,35.14604]],[[-106.55385,35.14604],[-106.55379,35.14595],[-106.55334,35.14524],[-106.55323,35.14506]],[[-106.55366,35.1461],[-106.55376,35.14624]],[[-106.55304,35.1451],[-106.55307,35.14515],[-106.55361,35.14602],[-106.55366,35.1461]],[[-106.55376,35.14624],[-106.5538,35.14631],[-106.55397,35.14658],[-106.55409,35.14674],[-106.55421,35.1469],[-106.55434,35.14706],[-106.55447,35.1472]]]},"properties":{"id":"abq-wyoming-and-just-north-of-academy-northbound-liv","label":"Wyoming and just north of Academy (northbound), live 5/23/2023","jurisdiction":"Albuquerque","street":"Wyoming","status":"active","enforcement":["speed"],"maxspeed_mph":40,"maxspeed_source":"OpenStreetMap","last_confirmed":"2023-05-23","sources":[{"url":"https://www.cabq.gov/automated-speed-enforcement","retrieved":"2026-09-20","note":"city-published list"}],"note":"northbound; live since 2023-05-23","anchor":[-106.55372,35.14618],"snap_distance_m":null,"schools_nearby":[]}},{"type":"Feature","geometry":{"type":"MultiLineString","coordinates":[[[-106.67302,35.17421],[-106.67275,35.17406],[-106.67274,35.17404],[-106.67244,35.17387],[-106.67223,35.17376],[-106.67203,35.17365],[-106.67188,35.17355],[-106.6718,35.1735],[-106.67164,35.17341],[-106.67162,35.1734],[-106.67146,35.17332],[-106.67116,35.17319],[-106.6711,35.17316],[-106.67074,35.17297],[-106.67065,35.17291],[-106.67053,35.1728],[-106.67043,35.17267],[-106.67032,35.1724],[-106.67032,35.171],[-106.6703,35.17007],[-106.6703,35.16979],[-106.67037,35.16789],[-106.67036,35.16721],[-106.67035,35.16705],[-106.67002,35.16699],[-106.66729,35.16649]],[[-106.66937,35.17949],[-106.6683,35.18058]],[[-106.66815,35.181],[-106.6683,35.18087]],[[-106.6683,35.18087],[-106.66845,35.18073],[-106.66995,35.1793]],[[-106.66807,35.1808],[-106.66795,35.18091]],[[-106.66795,35.18091],[-106.66762,35.1812],[-106.66592,35.18283]],[[-106.66777,35.18136],[-106.66796,35.18118],[-106.66815,35.181]],[[-106.66592,35.18283],[-106.6655,35.18323],[-106.66522,35.1835]],[[-106.6713,35.17774],[-106.6706,35.17841],[-106.67047,35.17852]],[[-106.67255,35.17661],[-106.67309,35.17585],[-106.67327,35.17557],[-106.67344,35.17525],[-106.67359,35.17495]],[[-106.67958,35.15958],[-106.68025,35.1585],[-106.68059,35.15794],[-106.68292,35.15413],[-106.6841,35.15235],[-106.68518,35.15096],[-106.6853,35.15082]],[[-106.67359,35.17495],[-106.67376,35.17459],[-106.67379,35.17453],[-106.67384,35.17442],[-106.67387,35.17434],[-106.67421,35.17336],[-106.67455,35.17221],[-106.67529,35.16985],[-106.6759,35.16778],[-106.67596,35.16758]],[[-106.66536,35.18366],[-106.66572,35.18331]],[[-106.67902,35.16007],[-106.67899,35.16014],[-106.67831,35.16125],[-106.67802,35.16174],[-106.67771,35.16229],[-106.67745,35.16276],[-106.67734,35.16301],[-106.67721,35.16331],[-106.67679,35.16438],[-106.67647,35.16542],[-106.67587,35.16729]],[[-106.6861,35.14962],[-106.68603,35.14969],[-106.68576,35.14997],[-106.68541,35.15034],[-106.68493,35.15084],[-106.68493,35.15086],[-106.68458,35.15131],[-106.68427,35.15173],[-106.68401,35.1521],[-106.68389,35.15227],[-106.68366,35.1527],[-106.68335,35.1532],[-106.68305,35.15365],[-106.6828,35.15407],[-106.68253,35.15449],[-106.68213,35.15512],[-106.6819,35.15547],[-106.68179,35.15565],[-106.68117,35.15662],[-106.68101,35.15691],[-106.68078,35.15729],[-106.68046,35.15779],[-106.68041,35.15787],[-106.67977,35.15888],[-106.67975,35.15892],[-106.6797,35.15899],[-106.67941,35.1595],[-106.67913,35.15991],[-106.67907,35.15999]],[[-106.67933,35.15999],[-106.67938,35.15991],[-106.67958,35.15958]],[[-106.67907,35.15999],[-106.67902,35.16007]],[[-106.67927,35.16007],[-106.67933,35.15999]],[[-106.67584,35.16741],[-106.67574,35.16771],[-106.67535,35.16899],[-106.67461,35.17137],[-106.67436,35.17216],[-106.6743,35.17233],[-106.67401,35.17325],[-106.67388,35.17369],[-106.67367,35.17429],[-106.67364,35.17436],[-106.67359,35.17447],[-106.67356,35.17453],[-106.67332,35.17506],[-106.67308,35.1755],[-106.67283,35.17592],[-106.67256,35.17631],[-106.67234,35.17661],[-106.67198,35.17705],[-106.67161,35.17745],[-106.6713,35.17774]],[[-106.67587,35.16729],[-106.67586,35.16734],[-106.67584,35.16741]],[[-106.67604,35.16732],[-106.67665,35.16547],[-106.67724,35.16364],[-106.67755,35.16306],[-106.67814,35.16192],[-106.67838,35.16147],[-106.67867,35.16102],[-106.67924,35.16014],[-106.67927,35.16007]],[[-106.67596,35.16758],[-106.676,35.16745]],[[-106.676,35.16745],[-106.67601,35.16742],[-106.67604,35.16732]],[[-106.68571,35.15036],[-106.68622,35.14979],[-106.68629,35.14972]],[[-106.6853,35.15082],[-106.68571,35.15036]],[[-106.67075,35.17853],[-106.67165,35.17765],[-106.67199,35.1773]],[[-106.66995,35.1793],[-106.66999,35.17926],[-106.67011,35.17914],[-106.67064,35.17863],[-106.67075,35.17853]],[[-106.66572,35.18331],[-106.66669,35.18237]],[[-106.67199,35.1773],[-106.67228,35.17695],[-106.67255,35.17661]],[[-106.6683,35.18058],[-106.66823,35.18064],[-106.66807,35.1808]],[[-106.66669,35.18237],[-106.66777,35.18136]],[[-106.67047,35.17852],[-106.6698,35.17913],[-106.66937,35.17949]],[[-106.66522,35.1835],[-106.66509,35.18363]]]},"properties":{"id":"abq-coors-between-montano-and-paseo-del-norte-northb","label":"Coors between Montano and Paseo del Norte (northbound), live 9/15/2023","jurisdiction":"Albuquerque","street":"Coors","status":"active","enforcement":["speed"],"maxspeed_mph":45,"maxspeed_source":"OpenStreetMap","last_confirmed":"2023-09-15","sources":[{"url":"https://www.cabq.gov/automated-speed-enforcement","retrieved":"2026-09-20","note":"city-published list"}],"note":"northbound; live since 2023-09-15","anchor":[-106.67577,35.16674],"snap_distance_m":null,"schools_nearby":[]}},{"type":"Feature","geometry":{"type":"MultiLineString","coordinates":[[[-106.65924,35.20581],[-106.65929,35.20562],[-106.6593,35.20555],[-106.6594,35.2052]],[[-106.65907,35.2056],[-106.65902,35.2058]],[[-106.65902,35.2058],[-106.659,35.20588],[-106.65892,35.2062],[-106.65889,35.20629]],[[-106.65933,35.20459],[-106.65926,35.20488]],[[-106.65909,35.20636],[-106.65922,35.20589],[-106.65924,35.20581]],[[-106.659,35.20672],[-106.65905,35.20651]],[[-106.65905,35.20651],[-106.65909,35.20636]],[[-106.65918,35.20517],[-106.65909,35.20553],[-106.65907,35.2056]],[[-106.65926,35.20488],[-106.65923,35.205]],[[-106.65923,35.205],[-106.65918,35.20517]]]},"properties":{"id":"abq-coors-bypass-just-south-of-ellison-southbound-li","label":"Coors Bypass just south of Ellison (southbound), live 9/22/2023","jurisdiction":"Albuquerque","street":"Coors Bypass","status":"active","enforcement":["speed"],"maxspeed_mph":45,"maxspeed_source":"OpenStreetMap","last_confirmed":"2023-09-22","sources":[{"url":"https://www.cabq.gov/automated-speed-enforcement","retrieved":"2026-09-20","note":"city-published list"}],"note":"southbound; live since 2023-09-22","anchor":[-106.65905,35.20569],"snap_distance_m":null,"schools_nearby":[]}},{"type":"Feature","geometry":{"type":"MultiLineString","coordinates":[[[-106.57019,35.17433],[-106.56985,35.17433],[-106.56953,35.17433]],[[-106.56953,35.17433],[-106.569,35.17433]],[[-106.56891,35.17453],[-106.56901,35.17453],[-106.56969,35.17453],[-106.56986,35.17453]],[[-106.56817,35.17453],[-106.56868,35.17453],[-106.56877,35.17453],[-106.56891,35.17453]],[[-106.56747,35.17453],[-106.56817,35.17453]],[[-106.56728,35.17453],[-106.56747,35.17453]],[[-106.569,35.17433],[-106.56892,35.17433],[-106.56878,35.17433],[-106.56868,35.17433],[-106.56808,35.17433]]]},"properties":{"id":"abq-paseo-del-norte-west-of-louisiana-westbound-live","label":"Paseo del Norte west of Louisiana (westbound), live 12/05/2023","jurisdiction":"Albuquerque","street":"Paseo del Norte","status":"active","enforcement":["speed"],"maxspeed_mph":55,"maxspeed_source":"OpenStreetMap","last_confirmed":"2023-12-05","sources":[{"url":"https://www.cabq.gov/automated-speed-enforcement","retrieved":"2026-09-20","note":"city-published list"}],"note":"westbound; live since 2023-12-05","anchor":[-106.56885,35.17433],"snap_distance_m":null,"schools_nearby":[]}},{"type":"Feature","geometry":{"type":"MultiLineString","coordinates":[[[-106.64559,35.07875],[-106.64551,35.07883],[-106.64536,35.07964],[-106.64534,35.07973]],[[-106.64559,35.07875],[-106.64565,35.07844],[-106.64573,35.07805],[-106.64579,35.07769],[-106.6458,35.07753]],[[-106.64547,35.07975],[-106.64549,35.07965],[-106.64554,35.07937],[-106.64565,35.07885],[-106.64559,35.07875]],[[-106.64534,35.07973],[-106.64532,35.07983]],[[-106.64541,35.08003],[-106.64545,35.07984],[-106.64547,35.07975]]]},"properties":{"id":"abq-broadway-just-north-of-iron-southbound-live-6-26","label":"Broadway just north of Iron (southbound), live 6/26/2024","jurisdiction":"Albuquerque","street":"Broadway","status":"active","enforcement":["speed"],"maxspeed_mph":35,"maxspeed_source":"OpenStreetMap","last_confirmed":"2024-06-26","sources":[{"url":"https://www.cabq.gov/automated-speed-enforcement","retrieved":"2026-09-20","note":"city-published list"}],"note":"southbound; live since 2024-06-26","anchor":[-106.64559,35.07875],"snap_distance_m":null,"schools_nearby":[]}},{"type":"Feature","geometry":{"type":"MultiLineString","coordinates":[[[-106.56857,35.07594],[-106.56874,35.07596],[-106.57052,35.07616],[-106.57072,35.07618],[-106.57102,35.07621],[-106.57209,35.07633],[-106.57212,35.07633],[-106.57221,35.07634],[-106.57236,35.07636],[-106.57247,35.07637],[-106.57294,35.07642],[-106.5742,35.07655],[-106.57529,35.07667],[-106.57571,35.07672],[-106.57628,35.07678],[-106.57646,35.0768],[-106.57684,35.07684],[-106.57702,35.07686],[-106.57715,35.07687],[-106.57734,35.0769]],[[-106.57076,35.07604],[-106.57005,35.07597],[-106.56973,35.07593],[-106.56923,35.07588],[-106.56901,35.07586],[-106.56879,35.07583],[-106.56875,35.07583]],[[-106.57421,35.07642],[-106.57364,35.07636],[-106.57294,35.07628]],[[-106.57294,35.07628],[-106.57261,35.07625],[-106.57251,35.07624],[-106.57246,35.07623],[-106.57235,35.07622],[-106.57226,35.07621],[-106.57223,35.07621],[-106.57216,35.0762],[-106.57076,35.07604]],[[-106.57749,35.07677],[-106.57735,35.07676],[-106.5772,35.07674]],[[-106.5772,35.07674],[-106.57687,35.07671]],[[-106.57687,35.07671],[-106.57667,35.07669],[-106.57641,35.07666],[-106.5753,35.07654],[-106.57515,35.07653],[-106.5747,35.07648],[-106.57421,35.07642]]]},"properties":{"id":"abq-central-between-louisiana-and-san-pedro-eastboun","label":"Central between Louisiana and San Pedro (eastbound), live 10/3/2025","jurisdiction":"Albuquerque","street":"Central","status":"active","enforcement":["speed"],"maxspeed_mph":35,"maxspeed_source":"OpenStreetMap","last_confirmed":"2025-10-03","sources":[{"url":"https://www.cabq.gov/automated-speed-enforcement","retrieved":"2026-09-20","note":"city-published list"}],"note":"eastbound; live since 2025-10-03","anchor":[-106.57303,35.07636],"snap_distance_m":null,"schools_nearby":[]}},{"type":"Feature","geometry":{"type":"MultiLineString","coordinates":[[[-106.56857,35.07594],[-106.56874,35.07596],[-106.57052,35.07616],[-106.57072,35.07618],[-106.57102,35.07621],[-106.57209,35.07633],[-106.57212,35.07633],[-106.57221,35.07634],[-106.57236,35.07636],[-106.57247,35.07637],[-106.57294,35.07642],[-106.5742,35.07655],[-106.57529,35.07667],[-106.57571,35.07672],[-106.57628,35.07678],[-106.57646,35.0768],[-106.57684,35.07684],[-106.57702,35.07686],[-106.57715,35.07687],[-106.57734,35.0769]],[[-106.57076,35.07604],[-106.57005,35.07597],[-106.56973,35.07593],[-106.56923,35.07588],[-106.56901,35.07586],[-106.56879,35.07583],[-106.56875,35.07583]],[[-106.57421,35.07642],[-106.57364,35.07636],[-106.57294,35.07628]],[[-106.57294,35.07628],[-106.57261,35.07625],[-106.57251,35.07624],[-106.57246,35.07623],[-106.57235,35.07622],[-106.57226,35.07621],[-106.57223,35.07621],[-106.57216,35.0762],[-106.57076,35.07604]],[[-106.57749,35.07677],[-106.57735,35.07676],[-106.5772,35.07674]],[[-106.5772,35.07674],[-106.57687,35.07671]],[[-106.57687,35.07671],[-106.57667,35.07669],[-106.57641,35.07666],[-106.5753,35.07654],[-106.57515,35.07653],[-106.5747,35.07648],[-106.57421,35.07642]]]},"properties":{"id":"abq-central-between-louisiana-and-san-pedro-westboun","label":"Central between Louisiana and San Pedro (westbound), live 10/3/25","jurisdiction":"Albuquerque","street":"Central","status":"active","enforcement":["speed"],"maxspeed_mph":35,"maxspeed_source":"OpenStreetMap","last_confirmed":"2025-10-03","sources":[{"url":"https://www.cabq.gov/automated-speed-enforcement","retrieved":"2026-09-20","note":"city-published list"}],"note":"westbound; live since 2025-10-03","anchor":[-106.57303,35.07636],"snap_distance_m":null,"schools_nearby":[]}},{"type":"Feature","geometry":{"type":"MultiLineString","coordinates":[[[-106.60403,35.12781],[-106.60403,35.12784],[-106.60403,35.12839],[-106.60403,35.12876],[-106.60404,35.12924],[-106.60404,35.12932]],[[-106.60403,35.12735],[-106.60403,35.12756],[-106.60403,35.12759]],[[-106.60403,35.12759],[-106.60403,35.12781]],[[-106.6042,35.12838],[-106.60421,35.12781]],[[-106.60421,35.12758],[-106.60421,35.12756],[-106.60421,35.12708]],[[-106.60421,35.12781],[-106.60421,35.12758]]]},"properties":{"id":"abq-carlisle-between-hilton-and-delmar-southbound-li","label":"Carlisle between Hilton and Delmar (southbound), live 1/30/25","jurisdiction":"Albuquerque","street":"Carlisle","status":"active","enforcement":["speed"],"maxspeed_mph":35,"maxspeed_source":"OpenStreetMap","last_confirmed":"2025-01-30","sources":[{"url":"https://www.cabq.gov/automated-speed-enforcement","retrieved":"2026-09-20","note":"city-published list"}],"note":"southbound; live since 2025-01-30","anchor":[-106.6042,35.12838],"snap_distance_m":null,"schools_nearby":[]}},{"type":"Feature","geometry":{"type":"MultiLineString","coordinates":[[[-106.6082,35.07728],[-106.60831,35.07728],[-106.60842,35.07728],[-106.60893,35.07728],[-106.60946,35.07728],[-106.60957,35.07728],[-106.60968,35.07728],[-106.61019,35.07728],[-106.61071,35.07728],[-106.6108,35.07728],[-106.61093,35.07728]]]},"properties":{"id":"abq-lead-near-bryn-mawr-westbound-live-2-6-2026","label":"Lead near Bryn Mawr (westbound), live 2/6/2026","jurisdiction":"Albuquerque","street":"Lead","status":"active","enforcement":["speed"],"maxspeed_mph":30,"maxspeed_source":"OpenStreetMap","last_confirmed":"2026-02-06","sources":[{"url":"https://www.cabq.gov/automated-speed-enforcement","retrieved":"2026-09-20","note":"city-published list"}],"note":"westbound; live since 2026-02-06","anchor":[-106.60957,35.07728],"snap_distance_m":null,"schools_nearby":[]}},{"type":"Feature","geometry":{"type":"MultiLineString","coordinates":[[[-106.53327,35.12789],[-106.53326,35.12821],[-106.53326,35.12884],[-106.53326,35.12898],[-106.53326,35.12909],[-106.53326,35.12978]],[[-106.53344,35.12978],[-106.53343,35.12946],[-106.53343,35.12898],[-106.53343,35.12884],[-106.53343,35.12852],[-106.53343,35.12826],[-106.53343,35.12804],[-106.53343,35.12784]]]},"properties":{"id":"abq-eubank-near-sierra-vista-southbound-live-2-6-202","label":"Eubank near Sierra Vista (southbound), live 2/6/2026","jurisdiction":"Albuquerque","street":"Eubank","status":"active","enforcement":["speed"],"maxspeed_mph":40,"maxspeed_source":"OpenStreetMap","last_confirmed":"2026-02-06","sources":[{"url":"https://www.cabq.gov/automated-speed-enforcement","retrieved":"2026-09-20","note":"city-published list"}],"note":"southbound; live since 2026-02-06","anchor":[-106.53343,35.12852],"snap_distance_m":null,"schools_nearby":[]}},{"type":"Feature","geometry":{"type":"MultiLineString","coordinates":[[[-106.64559,35.07875],[-106.64551,35.07883],[-106.64536,35.07964],[-106.64534,35.07973]],[[-106.64559,35.07875],[-106.64565,35.07844],[-106.64573,35.07805]],[[-106.64547,35.07975],[-106.64549,35.07965],[-106.64554,35.07937],[-106.64565,35.07885],[-106.64559,35.07875]],[[-106.64534,35.07973],[-106.64532,35.07983],[-106.64523,35.08027],[-106.6452,35.08043]],[[-106.64531,35.08054],[-106.64535,35.08034],[-106.64541,35.08003],[-106.64545,35.07984],[-106.64547,35.07975]]]},"properties":{"id":"abq-broadway-between-iron-and-coal-northbound-live-3","label":"Broadway between Iron and Coal (northbound), live 3/23/2026","jurisdiction":"Albuquerque","street":"Broadway","status":"active","enforcement":["speed"],"maxspeed_mph":35,"maxspeed_source":"OpenStreetMap","last_confirmed":"2026-03-23","sources":[{"url":"https://www.cabq.gov/automated-speed-enforcement","retrieved":"2026-09-20","note":"city-published list"}],"note":"northbound; live since 2026-03-23","anchor":[-106.64553,35.07925],"snap_distance_m":null,"schools_nearby":[]}},{"type":"Feature","geometry":{"type":"MultiLineString","coordinates":[[[-106.72802,35.11802],[-106.72805,35.11791],[-106.72806,35.11782],[-106.72811,35.11769],[-106.72818,35.11752],[-106.72825,35.11735],[-106.72834,35.11719],[-106.72843,35.11703],[-106.72854,35.11688],[-106.72865,35.11673]],[[-106.72844,35.11664],[-106.72832,35.1168],[-106.72821,35.11696],[-106.72811,35.11712],[-106.72802,35.11729],[-106.72794,35.11746],[-106.72783,35.11775],[-106.72779,35.11784],[-106.72776,35.11794],[-106.72774,35.11803],[-106.72772,35.11812],[-106.72769,35.11835],[-106.72767,35.11861],[-106.72766,35.11886],[-106.72767,35.11908]],[[-106.72786,35.1191],[-106.72787,35.11894]],[[-106.72787,35.11894],[-106.72788,35.11887],[-106.72791,35.11864],[-106.72796,35.11834],[-106.72802,35.1181],[-106.72802,35.11802]]]},"properties":{"id":"abq-unser-near-old-ouray-northbound-live-3-23-2026","label":"Unser near Old Ouray (northbound), live 3/23/2026","jurisdiction":"Albuquerque","street":"Unser","status":"active","enforcement":["speed"],"maxspeed_mph":45,"maxspeed_source":"OpenStreetMap","last_confirmed":"2026-03-23","sources":[{"url":"https://www.cabq.gov/automated-speed-enforcement","retrieved":"2026-09-20","note":"city-published list"}],"note":"northbound; live since 2026-03-23","anchor":[-106.72804,35.11795],"snap_distance_m":null,"schools_nearby":[]}},{"type":"Feature","geometry":{"type":"MultiLineString","coordinates":[[[-106.5151,35.07949],[-106.5151,35.07956],[-106.51508,35.08004],[-106.51507,35.08078]],[[-106.51526,35.07949],[-106.51526,35.07939]],[[-106.51509,35.07938],[-106.5151,35.07949]],[[-106.51524,35.08079],[-106.51525,35.0807],[-106.51526,35.07988],[-106.51526,35.07956],[-106.51526,35.07949]]]},"properties":{"id":"abq-juan-tabo-near-copper-southbound-live-3-23-2026","label":"Juan Tabo near Copper (southbound), live 3/23/2026","jurisdiction":"Albuquerque","street":"Juan Tabo","status":"active","enforcement":["speed"],"maxspeed_mph":40,"maxspeed_source":"OpenStreetMap","last_confirmed":"2026-03-23","sources":[{"url":"https://www.cabq.gov/automated-speed-enforcement","retrieved":"2026-09-20","note":"city-published list"}],"note":"southbound; live since 2026-03-23","anchor":[-106.5151,35.07949],"snap_distance_m":null,"schools_nearby":[]}},{"type":"Feature","geometry":{"type":"MultiLineString","coordinates":[[[-106.56645,35.07269],[-106.56629,35.07269]],[[-106.56441,35.07272],[-106.5643,35.07272],[-106.56416,35.07272]],[[-106.56629,35.07269],[-106.56537,35.0727],[-106.56441,35.07272]],[[-106.56416,35.07272],[-106.56372,35.07273]],[[-106.56372,35.07273],[-106.56335,35.07273],[-106.56327,35.07273]]]},"properties":{"id":"abq-zuni-between-mesilla-and-espanola-westbound-live","label":"Zuni between Mesilla and Espanola (westbound), live 3/23/26","jurisdiction":"Albuquerque","street":"Zuni","status":"active","enforcement":["speed"],"maxspeed_mph":30,"maxspeed_source":"OpenStreetMap","last_confirmed":"2026-03-23","sources":[{"url":"https://www.cabq.gov/automated-speed-enforcement","retrieved":"2026-09-20","note":"city-published list"}],"note":"westbound; live since 2026-03-23","anchor":[-106.56483,35.07271],"snap_distance_m":null,"schools_nearby":[]}},{"type":"Feature","geometry":{"type":"MultiLineString","coordinates":[[[-106.61358,35.10928],[-106.61411,35.10928],[-106.61436,35.10928],[-106.61468,35.10928],[-106.61523,35.10928],[-106.61532,35.10928],[-106.6159,35.10927]],[[-106.61638,35.10913],[-106.61584,35.10913],[-106.61532,35.10913],[-106.61523,35.10913],[-106.6151,35.10913],[-106.61468,35.10913],[-106.61356,35.10913]]]},"properties":{"id":"abq-menaul-west-of-vassar-westbound-live-4-1-2026","label":"Menaul west of Vassar (westbound), live 4/1/2026","jurisdiction":"Albuquerque","street":"Menaul","status":"active","enforcement":["speed"],"maxspeed_mph":45,"maxspeed_source":"OpenStreetMap","last_confirmed":"2026-04-01","sources":[{"url":"https://www.cabq.gov/automated-speed-enforcement","retrieved":"2026-09-20","note":"city-published list"}],"note":"westbound; live since 2026-04-01","anchor":[-106.61495,35.10913],"snap_distance_m":null,"schools_nearby":[]}},{"type":"Feature","geometry":{"type":"MultiLineString","coordinates":[[[-106.72252,35.07496],[-106.72251,35.07476],[-106.72252,35.07465],[-106.72253,35.0745],[-106.72261,35.07421],[-106.72275,35.07366],[-106.72303,35.0726]],[[-106.72258,35.07378],[-106.72251,35.07406],[-106.72241,35.07446],[-106.72236,35.0747],[-106.72233,35.07491],[-106.72233,35.07511]]]},"properties":{"id":"abq-unser-near-gwin-southbound-live-6-19-2026","label":"Unser near Gwin (southbound), live 6/19/2026","jurisdiction":"Albuquerque","street":"Unser","status":"active","enforcement":["speed"],"maxspeed_mph":null,"maxspeed_source":"absent from OpenStreetMap","last_confirmed":"2026-06-19","sources":[{"url":"https://www.cabq.gov/automated-speed-enforcement","retrieved":"2026-09-20","note":"city-published list"}],"note":"southbound; live since 2026-06-19","anchor":[-106.72258,35.07378],"snap_distance_m":null,"schools_nearby":[]}},{"type":"Feature","geometry":{"type":"MultiLineString","coordinates":[[[-106.64294,35.12992],[-106.64298,35.12969],[-106.643,35.12958],[-106.64304,35.12938]],[[-106.64262,35.13154],[-106.64267,35.13129],[-106.64273,35.13096],[-106.64277,35.13078]],[[-106.64277,35.13078],[-106.64283,35.13045],[-106.64285,35.13039]],[[-106.64285,35.13039],[-106.64287,35.13027],[-106.64288,35.13021],[-106.64294,35.12992]]]},"properties":{"id":"abq-fourth-street-north-of-griegos-southbound-live-6","label":"Fourth Street north of Griegos (southbound), live 6/19/2026","jurisdiction":"Albuquerque","street":"Fourth Street","status":"active","enforcement":["speed"],"maxspeed_mph":35,"maxspeed_source":"OpenStreetMap","last_confirmed":"2026-06-19","sources":[{"url":"https://www.cabq.gov/automated-speed-enforcement","retrieved":"2026-09-20","note":"city-published list"}],"note":"southbound; live since 2026-06-19","anchor":[-106.64286,35.13033],"snap_distance_m":null,"schools_nearby":["Mountain Mahogany Community School"]}},{"type":"Feature","geometry":{"type":"MultiLineString","coordinates":[[[-106.70344,35.08162],[-106.70378,35.08155],[-106.70405,35.08149],[-106.70443,35.0814]],[[-106.70443,35.0814],[-106.70485,35.0813],[-106.70519,35.08122],[-106.70586,35.08106],[-106.70592,35.08105],[-106.7062,35.08099]],[[-106.70334,35.08149],[-106.70322,35.08152]],[[-106.70618,35.08085],[-106.70584,35.08094],[-106.70549,35.08102],[-106.70481,35.08117],[-106.70334,35.08149]]]},"properties":{"id":"abq-central-near-61st-street-eastbound-live-6-19-202","label":"Central near 61st Street (eastbound), live 6/19/2026","jurisdiction":"Albuquerque","street":"Central","status":"active","enforcement":["speed"],"maxspeed_mph":40,"maxspeed_source":"OpenStreetMap","last_confirmed":"2026-06-19","sources":[{"url":"https://www.cabq.gov/automated-speed-enforcement","retrieved":"2026-09-20","note":"city-published list"}],"note":"eastbound; live since 2026-06-19","anchor":[-106.70481,35.08117],"snap_distance_m":null,"schools_nearby":[]}},{"type":"Feature","geometry":{"type":"MultiLineString","coordinates":[[[-106.70344,35.08162],[-106.70378,35.08155],[-106.70405,35.08149],[-106.70443,35.0814]],[[-106.70443,35.0814],[-106.70485,35.0813],[-106.70519,35.08122],[-106.70586,35.08106],[-106.70592,35.08105],[-106.7062,35.08099]],[[-106.70334,35.08149],[-106.70322,35.08152]],[[-106.70618,35.08085],[-106.70584,35.08094],[-106.70549,35.08102],[-106.70481,35.08117],[-106.70334,35.08149]]]},"properties":{"id":"abq-central-near-61st-street-westbound-live-6-19-202","label":"Central near 61st Street (westbound), live 6/19/2026","jurisdiction":"Albuquerque","street":"Central","status":"active","enforcement":["speed"],"maxspeed_mph":40,"maxspeed_source":"OpenStreetMap","last_confirmed":"2026-06-19","sources":[{"url":"https://www.cabq.gov/automated-speed-enforcement","retrieved":"2026-09-20","note":"city-published list"}],"note":"westbound; live since 2026-06-19","anchor":[-106.70481,35.08117],"snap_distance_m":null,"schools_nearby":[]}},{"type":"Feature","geometry":{"type":"MultiLineString","coordinates":[[[-106.49717,35.08622],[-106.49717,35.08634],[-106.49717,35.08642],[-106.49714,35.08688]],[[-106.49734,35.08688],[-106.49735,35.08645],[-106.49735,35.08642],[-106.49735,35.08635],[-106.49735,35.08622],[-106.49735,35.08615],[-106.49736,35.08584]],[[-106.49736,35.08584],[-106.49735,35.08497]],[[-106.49718,35.08499],[-106.49718,35.08532]],[[-106.49718,35.08559],[-106.49717,35.08611],[-106.49717,35.08613],[-106.49717,35.08622]],[[-106.49718,35.08532],[-106.49718,35.08546],[-106.49718,35.08559]]]},"properties":{"id":"abq-tramway-near-lomas-southbound-live-7-24-26","label":"Tramway near Lomas (southbound), live 7/24/26","jurisdiction":"Albuquerque","street":"Tramway","status":"active","enforcement":["speed"],"maxspeed_mph":50,"maxspeed_source":"OpenStreetMap","last_confirmed":"2026-07-24","sources":[{"url":"https://www.cabq.gov/automated-speed-enforcement","retrieved":"2026-09-20","note":"city-published list"}],"note":"southbound; live since 2026-07-24","anchor":[-106.49735,35.08628],"snap_distance_m":null,"schools_nearby":["Abq School Of Excellence"]}},{"type":"Feature","geometry":{"type":"MultiLineString","coordinates":[[[-106.5497,35.17408],[-106.55091,35.17406],[-106.55102,35.17406]],[[-106.55117,35.17406],[-106.5513,35.17406]],[[-106.55101,35.17387],[-106.55089,35.17387],[-106.54985,35.17389]],[[-106.55102,35.17406],[-106.55117,35.17406]],[[-106.55237,35.17386],[-106.55129,35.17387],[-106.55117,35.17387]],[[-106.55117,35.17387],[-106.55101,35.17387]]]},"properties":{"id":"abq-paseo-del-norte-west-of-barstow-westbound-live-7","label":"Paseo del Norte west of Barstow (westbound), live 7/24/26","jurisdiction":"Albuquerque","street":"Paseo del Norte","status":"active","enforcement":["speed"],"maxspeed_mph":55,"maxspeed_source":"OpenStreetMap","last_confirmed":"2026-07-24","sources":[{"url":"https://www.cabq.gov/automated-speed-enforcement","retrieved":"2026-09-20","note":"city-published list"}],"note":"westbound; live since 2026-07-24","anchor":[-106.55109,35.17406],"snap_distance_m":null,"schools_nearby":[]}},{"type":"Feature","geometry":{"type":"MultiLineString","coordinates":[[[-106.70176,35.12925],[-106.70174,35.12816],[-106.70174,35.12805]],[[-106.70174,35.12794],[-106.70174,35.12783]],[[-106.70156,35.12805],[-106.70156,35.12817],[-106.70155,35.1287]],[[-106.70157,35.12703],[-106.70156,35.12784],[-106.70156,35.12794]],[[-106.70156,35.12794],[-106.70156,35.12805]],[[-106.70174,35.12805],[-106.70174,35.12794]]]},"properties":{"id":"abq-coors-north-of-st-joseph-northbound-7-29-2026","label":"Coors north of St. Joseph (northbound), 7/29/2026","jurisdiction":"Albuquerque","street":"Coors","status":"active","enforcement":["speed"],"maxspeed_mph":45,"maxspeed_source":"OpenStreetMap","last_confirmed":"2026-07-29","sources":[{"url":"https://www.cabq.gov/automated-speed-enforcement","retrieved":"2026-09-20","note":"city-published list"}],"note":"northbound; live since 2026-07-29","anchor":[-106.70156,35.12799],"snap_distance_m":null,"schools_nearby":[]}},{"type":"Feature","geometry":{"type":"MultiLineString","coordinates":[[[-106.70176,35.12925],[-106.70174,35.12816],[-106.70174,35.12805]],[[-106.70174,35.12794],[-106.70174,35.12783]],[[-106.70156,35.12805],[-106.70156,35.12817],[-106.70155,35.1287]],[[-106.70157,35.12703],[-106.70156,35.12784],[-106.70156,35.12794]],[[-106.70156,35.12794],[-106.70156,35.12805]],[[-106.70174,35.12805],[-106.70174,35.12794]]]},"properties":{"id":"abq-coors-north-of-st-joseph-southbound-7-29-2026","label":"Coors north of St. Joseph (southbound), 7/29/2026","jurisdiction":"Albuquerque","street":"Coors","status":"active","enforcement":["speed"],"maxspeed_mph":45,"maxspeed_source":"OpenStreetMap","last_confirmed":"2026-07-29","sources":[{"url":"https://www.cabq.gov/automated-speed-enforcement","retrieved":"2026-09-20","note":"city-published list"}],"note":"southbound; live since 2026-07-29","anchor":[-106.70156,35.12799],"snap_distance_m":null,"schools_nearby":[]}},{"type":"Feature","geometry":{"type":"MultiLineString","coordinates":[[[-106.55702,35.07457],[-106.55593,35.07445],[-106.5555,35.0744],[-106.55526,35.07438],[-106.55481,35.07433],[-106.55452,35.0743]],[[-106.55484,35.07446],[-106.5552,35.0745],[-106.55548,35.07453],[-106.55596,35.07458],[-106.55702,35.0747]]]},"properties":{"id":"abq-central-at-texas-westbound-9-4-2026","label":"Central at Texas (westbound), 9/4/2026","jurisdiction":"Albuquerque","street":"Central","status":"active","enforcement":["speed"],"maxspeed_mph":35,"maxspeed_source":"OpenStreetMap","last_confirmed":"2026-09-04","sources":[{"url":"https://www.cabq.gov/automated-speed-enforcement","retrieved":"2026-09-20","note":"city-published list"}],"note":"westbound; live since 2026-09-04","anchor":[-106.55596,35.07445],"snap_distance_m":null,"schools_nearby":[]}},{"type":"Feature","geometry":{"type":"MultiLineString","coordinates":[[[-106.56861,35.08356],[-106.56861,35.08435],[-106.56861,35.08456],[-106.56861,35.08481]]]},"properties":{"id":"abq-louisiana-near-marquette-northbound-9-4-2026","label":"Louisiana near Marquette (northbound), 9/4/2026","jurisdiction":"Albuquerque","street":"Louisiana","status":"active","enforcement":["speed"],"maxspeed_mph":35,"maxspeed_source":"OpenStreetMap","last_confirmed":"2026-09-04","sources":[{"url":"https://www.cabq.gov/automated-speed-enforcement","retrieved":"2026-09-20","note":"city-published list"}],"note":"northbound; live since 2026-09-04","anchor":[-106.56861,35.08356],"snap_distance_m":null,"schools_nearby":[]}},{"type":"Feature","geometry":{"type":"MultiLineString","coordinates":[[[-106.67985,35.19373],[-106.67974,35.19398],[-106.67973,35.194],[-106.6797,35.19414],[-106.67969,35.1942],[-106.67965,35.19444],[-106.67965,35.19464],[-106.67967,35.19489],[-106.67973,35.19514]]]},"properties":{"id":"osm-12087940066","label":"Golf Course NW","jurisdiction":"Rio Rancho","street":"Golf Course Road Northwest","status":"community-mapped","enforcement":["speed"],"maxspeed_mph":35,"maxspeed_source":"OpenStreetMap","last_confirmed":"2024-12-17","sources":[{"url":"https://www.openstreetmap.org/node/12087940066","retrieved":"2026-09-20","note":"mapped by , last edited 2024-12-17"}],"note":"Community-mapped, not published by the city. No survey date recorded","anchor":[-106.67974,35.19398],"snap_distance_m":null,"schools_nearby":[]}},{"type":"Feature","geometry":{"type":"MultiLineString","coordinates":[[[-106.66766,35.20584],[-106.66722,35.20592]]]},"properties":{"id":"osm-12087956671","label":"Ellison Road Northwest speed camera","jurisdiction":"Rio Rancho","street":"Ellison Road Northwest","status":"community-mapped","enforcement":["speed"],"maxspeed_mph":40,"maxspeed_source":"OpenStreetMap","last_confirmed":"2024-08-01","sources":[{"url":"https://www.openstreetmap.org/node/12087956671","retrieved":"2026-09-20","note":"mapped by , last edited 2024-08-01"}],"note":"Community-mapped, not published by the city. No survey date recorded","anchor":[-106.66746,35.20594],"snap_distance_m":null,"schools_nearby":[]}},{"type":"Feature","geometry":{"type":"MultiLineString","coordinates":[[[-106.67715,35.23037],[-106.67714,35.23005],[-106.67714,35.22992],[-106.67714,35.22967]]]},"properties":{"id":"osm-13380469273","label":"Golf Course @ 16th","jurisdiction":"Rio Rancho","street":"Golf Course Road Southeast","status":"community-mapped","enforcement":["speed"],"maxspeed_mph":40,"maxspeed_source":"OpenStreetMap","last_confirmed":"2025-12-16","sources":[{"url":"https://www.openstreetmap.org/node/13380469273","retrieved":"2026-09-20","note":"mapped by , last edited 2025-12-16"}],"note":"Community-mapped, not published by the city. No survey date recorded","anchor":[-106.67714,35.23005],"snap_distance_m":null,"schools_nearby":[]}},{"type":"Feature","geometry":{"type":"MultiLineString","coordinates":[[[-106.65706,35.28688],[-106.657,35.28692],[-106.65698,35.28692]]]},"properties":{"id":"osm-13380469274","label":"Idalia @ Loma Colorado","jurisdiction":"Rio Rancho","street":"Idalia Road Northeast","status":"community-mapped","enforcement":["speed"],"maxspeed_mph":45,"maxspeed_source":"OpenStreetMap","last_confirmed":"2025-12-16","sources":[{"url":"https://www.openstreetmap.org/node/13380469274","retrieved":"2026-09-20","note":"mapped by , last edited 2025-12-16"}],"note":"Community-mapped, not published by the city. No survey date recorded","anchor":[-106.65698,35.28692],"snap_distance_m":null,"schools_nearby":[]}},{"type":"Feature","geometry":{"type":"MultiLineString","coordinates":[[[-106.61918,35.2873],[-106.61851,35.287],[-106.61808,35.28681],[-106.61799,35.28677]]]},"properties":{"id":"osm-13380469275","label":"Kim @ Saratoga","jurisdiction":"Rio Rancho","street":"Kim Road Northeast","status":"community-mapped","enforcement":["speed"],"maxspeed_mph":30,"maxspeed_source":"OpenStreetMap","last_confirmed":"2025-12-16","sources":[{"url":"https://www.openstreetmap.org/node/13380469275","retrieved":"2026-09-20","note":"mapped by , last edited 2025-12-16"}],"note":"Community-mapped, not published by the city. No survey date recorded","anchor":[-106.61799,35.28677],"snap_distance_m":null,"schools_nearby":[]}},{"type":"Feature","geometry":{"type":"MultiLineString","coordinates":[[[-106.67706,35.2519],[-106.67705,35.25178],[-106.67698,35.25145],[-106.67695,35.25128],[-106.67694,35.25115],[-106.67694,35.25098],[-106.67705,35.25061],[-106.67706,35.25055]]]},"properties":{"id":"osm-13380469276","label":"Broodmoor SB @ Nicklaus","jurisdiction":"Rio Rancho","street":"Broadmoor Boulevard Southeast","status":"community-mapped","enforcement":["speed"],"maxspeed_mph":30,"maxspeed_source":"OpenStreetMap","last_confirmed":"2025-12-16","sources":[{"url":"https://www.openstreetmap.org/node/13380469276","retrieved":"2026-09-20","note":"mapped by , last edited 2025-12-16"}],"note":"Community-mapped, not published by the city. No survey date recorded","anchor":[-106.67705,35.25061],"snap_distance_m":null,"schools_nearby":[]}},{"type":"Feature","geometry":{"type":"MultiLineString","coordinates":[[[-106.64356,35.26764],[-106.6435,35.26759],[-106.64342,35.26753]]]},"properties":{"id":"osm-13380469277","label":"Rockaway @ Pyrite","jurisdiction":"Rio Rancho","street":"Rockaway Boulevard Northeast","status":"community-mapped","enforcement":["speed"],"maxspeed_mph":30,"maxspeed_source":"OpenStreetMap","last_confirmed":"2025-12-16","sources":[{"url":"https://www.openstreetmap.org/node/13380469277","retrieved":"2026-09-20","note":"mapped by , last edited 2025-12-16"}],"note":"Community-mapped, not published by the city. No survey date recorded","anchor":[-106.6435,35.26759],"snap_distance_m":null,"schools_nearby":[]}},{"type":"Feature","geometry":{"type":"MultiLineString","coordinates":[[[-106.69692,35.30726],[-106.69692,35.30712],[-106.69694,35.30693],[-106.69694,35.30683]]]},"properties":{"id":"osm-13380469278","label":"Unser SB @ PdV","jurisdiction":"Rio Rancho","street":"Unser Boulevard Northeast","status":"community-mapped","enforcement":["speed"],"maxspeed_mph":45,"maxspeed_source":"OpenStreetMap","last_confirmed":"2025-12-16","sources":[{"url":"https://www.openstreetmap.org/node/13380469278","retrieved":"2026-09-20","note":"mapped by , last edited 2025-12-16"}],"note":"Community-mapped, not published by the city. No survey date recorded","anchor":[-106.69694,35.30693],"snap_distance_m":null,"schools_nearby":[]}},{"type":"Feature","geometry":{"type":"MultiLineString","coordinates":[[[-106.69632,35.22582],[-106.69632,35.22553],[-106.69633,35.2254],[-106.69634,35.2253],[-106.69634,35.22511],[-106.69634,35.22502]]]},"properties":{"id":"osm-13380469279","label":"Unser Boulevard Southeast speed camera","jurisdiction":"Rio Rancho","street":"Unser Boulevard Southeast","status":"community-mapped","enforcement":["speed"],"maxspeed_mph":45,"maxspeed_source":"OpenStreetMap","last_confirmed":"2025-12-16","sources":[{"url":"https://www.openstreetmap.org/node/13380469279","retrieved":"2026-09-20","note":"mapped by , last edited 2025-12-16"}],"note":"Community-mapped, not published by the city. No survey date recorded","anchor":[-106.69663,35.22562],"snap_distance_m":null,"schools_nearby":[]}},{"type":"Feature","geometry":{"type":"MultiLineString","coordinates":[[[-106.69669,35.30669],[-106.69668,35.30682],[-106.69668,35.3069],[-106.69663,35.30811]]]},"properties":{"id":"osm-13380469280","label":"Unser NB @ PdV","jurisdiction":"Rio Rancho","street":"Unser Boulevard Northeast","status":"community-mapped","enforcement":["speed"],"maxspeed_mph":45,"maxspeed_source":"OpenStreetMap","last_confirmed":"2025-12-16","sources":[{"url":"https://www.openstreetmap.org/node/13380469280","retrieved":"2026-09-20","note":"mapped by , last edited 2025-12-16"}],"note":"Community-mapped, not published by the city. No survey date recorded","anchor":[-106.69668,35.3069],"snap_distance_m":null,"schools_nearby":[]}},{"type":"Feature","geometry":{"type":"MultiLineString","coordinates":[[[-106.67699,35.25054],[-106.67697,35.25061],[-106.67687,35.25093],[-106.67685,35.25117],[-106.6769,35.25146],[-106.67697,35.25175]]]},"properties":{"id":"osm-13380490909","label":"Broodmoor NB @ Nicklaus","jurisdiction":"Rio Rancho","street":"Broadmoor Boulevard Southeast","status":"community-mapped","enforcement":["speed"],"maxspeed_mph":30,"maxspeed_source":"OpenStreetMap","last_confirmed":"2025-12-16","sources":[{"url":"https://www.openstreetmap.org/node/13380490909","retrieved":"2026-09-20","note":"mapped by , last edited 2025-12-16"}],"note":"Community-mapped, not published by the city. No survey date recorded","anchor":[-106.67697,35.25061],"snap_distance_m":null,"schools_nearby":[]}},{"type":"Feature","geometry":{"type":"MultiLineString","coordinates":[[[-106.6969,35.25703],[-106.6969,35.2567],[-106.6969,35.25661]]]},"properties":{"id":"osm-13380490911","label":"Unser SB @ 2nd","jurisdiction":"Rio Rancho","street":"Unser Boulevard Southeast","status":"community-mapped","enforcement":["speed"],"maxspeed_mph":40,"maxspeed_source":"OpenStreetMap","last_confirmed":"2025-12-16","sources":[{"url":"https://www.openstreetmap.org/node/13380490911","retrieved":"2026-09-20","note":"mapped by , last edited 2025-12-16"}],"note":"Community-mapped, not published by the city. No survey date recorded","anchor":[-106.6969,35.2567],"snap_distance_m":null,"schools_nearby":[]}},{"type":"Feature","geometry":{"type":"MultiLineString","coordinates":[[[-106.69677,35.25662],[-106.69677,35.25671],[-106.69677,35.25703]]]},"properties":{"id":"osm-13380490912","label":"Unser NB @ 2nd","jurisdiction":"Rio Rancho","street":"Unser Boulevard Southeast","status":"community-mapped","enforcement":["speed"],"maxspeed_mph":40,"maxspeed_source":"OpenStreetMap","last_confirmed":"2025-12-16","sources":[{"url":"https://www.openstreetmap.org/node/13380490912","retrieved":"2026-09-20","note":"mapped by , last edited 2025-12-16"}],"note":"Community-mapped, not published by the city. No survey date recorded","anchor":[-106.69677,35.25671],"snap_distance_m":null,"schools_nearby":[]}},{"type":"Feature","geometry":{"type":"MultiLineString","coordinates":[[[-106.6771,35.26354],[-106.6771,35.26347],[-106.6771,35.2634],[-106.6771,35.26326]]]},"properties":{"id":"osm-13380490924","label":"Broodmoor SB @ Loma Colorado","jurisdiction":"Rio Rancho","street":"Broadmoor Boulevard Northeast","status":"community-mapped","enforcement":["speed"],"maxspeed_mph":30,"maxspeed_source":"OpenStreetMap","last_confirmed":"2025-12-16","sources":[{"url":"https://www.openstreetmap.org/node/13380490924","retrieved":"2026-09-20","note":"mapped by , last edited 2025-12-16"}],"note":"Community-mapped, not published by the city. No survey date recorded","anchor":[-106.6771,35.26354],"snap_distance_m":null,"schools_nearby":[]}},{"type":"Feature","geometry":{"type":"MultiLineString","coordinates":[[[-106.67694,35.26339],[-106.67694,35.26346],[-106.67694,35.26355]]]},"properties":{"id":"osm-13380490925","label":"Broodmoor NB @ Loma Colorado","jurisdiction":"Rio Rancho","street":"Broadmoor Boulevard Northeast","status":"community-mapped","enforcement":["speed"],"maxspeed_mph":30,"maxspeed_source":"OpenStreetMap","last_confirmed":"2025-12-16","sources":[{"url":"https://www.openstreetmap.org/node/13380490925","retrieved":"2026-09-20","note":"mapped by , last edited 2025-12-16"}],"note":"Community-mapped, not published by the city. No survey date recorded","anchor":[-106.67694,35.26355],"snap_distance_m":null,"schools_nearby":[]}},{"type":"Feature","geometry":{"type":"MultiLineString","coordinates":[[[-106.69754,35.31512],[-106.69864,35.31511],[-106.69891,35.31511],[-106.69913,35.31511],[-106.69963,35.3151]]]},"properties":{"id":"osm-13380490952","label":"King WB @ Lake Valley (Unser)","jurisdiction":"Rio Rancho","street":"King Boulevard Northeast","status":"community-mapped","enforcement":["speed"],"maxspeed_mph":35,"maxspeed_source":"OpenStreetMap","last_confirmed":"2025-12-16","sources":[{"url":"https://www.openstreetmap.org/node/13380490952","retrieved":"2026-09-20","note":"mapped by , last edited 2025-12-16"}],"note":"Community-mapped, not published by the city. No survey date recorded","anchor":[-106.69891,35.31511],"snap_distance_m":null,"schools_nearby":[]}},{"type":"Feature","geometry":{"type":"MultiLineString","coordinates":[[[-106.69961,35.31499],[-106.69912,35.31499],[-106.6989,35.31499],[-106.69836,35.315],[-106.69789,35.315],[-106.69757,35.315]]]},"properties":{"id":"osm-13380490954","label":"King EB @ Lake Valley (Unser)","jurisdiction":"Rio Rancho","street":"King Boulevard Northeast","status":"community-mapped","enforcement":["speed"],"maxspeed_mph":35,"maxspeed_source":"OpenStreetMap","last_confirmed":"2025-12-16","sources":[{"url":"https://www.openstreetmap.org/node/13380490954","retrieved":"2026-09-20","note":"mapped by , last edited 2025-12-16"}],"note":"Community-mapped, not published by the city. No survey date recorded","anchor":[-106.6989,35.31499],"snap_distance_m":null,"schools_nearby":[]}},{"type":"Feature","geometry":{"type":"MultiLineString","coordinates":[[[-106.69248,35.19283],[-106.6918,35.19244],[-106.69168,35.19237],[-106.69164,35.19235],[-106.69126,35.19218],[-106.69079,35.19199],[-106.69028,35.19185]]]},"properties":{"id":"osm-13538504540","label":"Paradise Boulevard Northwest speed camera","jurisdiction":"Rio Rancho","street":"Paradise Boulevard Northwest","status":"community-mapped","enforcement":["speed"],"maxspeed_mph":35,"maxspeed_source":"OpenStreetMap","last_confirmed":"2026-02-10","sources":[{"url":"https://www.openstreetmap.org/node/13538504540","retrieved":"2026-09-20","note":"mapped by , last edited 2026-02-10"}],"note":"Community-mapped, not published by the city. No survey date recorded","anchor":[-106.69164,35.19235],"snap_distance_m":null,"schools_nearby":[]}},{"type":"Feature","geometry":{"type":"MultiLineString","coordinates":[[[-106.67139,35.0952],[-106.67152,35.09523],[-106.67158,35.09525],[-106.67166,35.09526],[-106.67236,35.09533],[-106.673,35.09539]]]},"properties":{"id":"osm-10581469098","label":"Central Rio Grande WB","jurisdiction":"Albuquerque","street":"Central Avenue Northwest","status":"community-mapped","enforcement":["speed"],"maxspeed_mph":30,"maxspeed_source":"OpenStreetMap","last_confirmed":"2023-01-25","sources":[{"url":"https://www.openstreetmap.org/node/10581469098","retrieved":"2026-09-20","note":"mapped by , last edited 2023-01-25"}],"note":"Community-mapped, not published by the city. No survey date recorded","anchor":[-106.67152,35.09523],"snap_distance_m":null,"schools_nearby":[]}},{"type":"Feature","geometry":{"type":"MultiLineString","coordinates":[[[-106.71385,35.13521],[-106.71398,35.13517],[-106.71408,35.13513],[-106.71418,35.13508]]]},"properties":{"id":"osm-10581469099","label":"Unser Western Trail SB","jurisdiction":"Albuquerque","street":"Unser Boulevard Northwest","status":"community-mapped","enforcement":["speed"],"maxspeed_mph":45,"maxspeed_source":"OpenStreetMap","last_confirmed":"2023-01-25","sources":[{"url":"https://www.openstreetmap.org/node/10581469099","retrieved":"2026-09-20","note":"mapped by , last edited 2023-01-25"}],"note":"Community-mapped, not published by the city. No survey date recorded","anchor":[-106.71385,35.13521],"snap_distance_m":null,"schools_nearby":[]}},{"type":"Feature","geometry":{"type":"MultiLineString","coordinates":[[[-106.6723,35.09518],[-106.67191,35.09514],[-106.67167,35.09512],[-106.67161,35.09512],[-106.67152,35.0951],[-106.67142,35.09507]]]},"properties":{"id":"osm-10581470209","label":"Central Rio Grande EB","jurisdiction":"Albuquerque","street":"Central Avenue Southwest","status":"community-mapped","enforcement":["speed"],"maxspeed_mph":30,"maxspeed_source":"OpenStreetMap","last_confirmed":"2023-01-25","sources":[{"url":"https://www.openstreetmap.org/node/10581470209","retrieved":"2026-09-20","note":"mapped by , last edited 2023-01-25"}],"note":"Community-mapped, not published by the city. No survey date recorded","anchor":[-106.67152,35.0951],"snap_distance_m":null,"schools_nearby":[]}},{"type":"Feature","geometry":{"type":"MultiLineString","coordinates":[[[-106.71398,35.135],[-106.71388,35.13504],[-106.71378,35.13508]]]},"properties":{"id":"osm-10581470210","label":"Unser Western Trail NB","jurisdiction":"Albuquerque","street":"Unser Boulevard Northwest","status":"community-mapped","enforcement":["speed"],"maxspeed_mph":45,"maxspeed_source":"OpenStreetMap","last_confirmed":"2023-01-25","sources":[{"url":"https://www.openstreetmap.org/node/10581470210","retrieved":"2026-09-20","note":"mapped by , last edited 2023-01-25"}],"note":"Community-mapped, not published by the city. No survey date recorded","anchor":[-106.71378,35.13508],"snap_distance_m":null,"schools_nearby":["Chaparral Elementary"]}},{"type":"Feature","geometry":{"type":"MultiLineString","coordinates":[[[-106.71412,35.14768],[-106.71421,35.14782],[-106.71449,35.14823],[-106.71456,35.14835],[-106.71493,35.14891]]]},"properties":{"id":"osm-11412742530","label":"Unser Boulevard Northwest speed camera","jurisdiction":"Albuquerque","street":"Unser Boulevard Northwest","status":"community-mapped","enforcement":["speed"],"maxspeed_mph":40,"maxspeed_source":"OpenStreetMap","last_confirmed":"2023-12-12","sources":[{"url":"https://www.openstreetmap.org/node/11412742530","retrieved":"2026-09-20","note":"mapped by , last edited 2023-12-12"}],"note":"Community-mapped, not published by the city. No survey date recorded","anchor":[-106.71412,35.14777],"snap_distance_m":null,"schools_nearby":[]}},{"type":"Feature","geometry":{"type":"MultiLineString","coordinates":[[[-106.62494,35.07809],[-106.62604,35.07823],[-106.62613,35.07825],[-106.62621,35.07826],[-106.62644,35.07829],[-106.62669,35.07832],[-106.62693,35.07835],[-106.62722,35.07838],[-106.62729,35.07839]]]},"properties":{"id":"osm-11412742532","label":"Lead Avenue Southeast speed camera","jurisdiction":"Albuquerque","street":"Lead Avenue Southeast","status":"community-mapped","enforcement":["speed"],"maxspeed_mph":30,"maxspeed_source":"OpenStreetMap","last_confirmed":"2023-12-12","sources":[{"url":"https://www.openstreetmap.org/node/11412742532","retrieved":"2026-09-20","note":"mapped by , last edited 2023-12-12"}],"note":"Community-mapped, not published by the city. No survey date recorded","anchor":[-106.62597,35.07827],"snap_distance_m":null,"schools_nearby":[]}},{"type":"Feature","geometry":{"type":"MultiLineString","coordinates":[[[-106.69465,35.06681],[-106.69578,35.06702],[-106.69611,35.06708],[-106.69666,35.06718]]]},"properties":{"id":"osm-12861865379","label":"Bridge WB","jurisdiction":"Albuquerque","street":"Bridge Boulevard Southwest","status":"community-mapped","enforcement":["speed"],"maxspeed_mph":40,"maxspeed_source":"OpenStreetMap","last_confirmed":"2025-05-25","sources":[{"url":"https://www.openstreetmap.org/node/12861865379","retrieved":"2026-09-20","note":"mapped by , last edited 2025-05-25"}],"note":"Community-mapped, not published by the city. No survey date recorded","anchor":[-106.69578,35.06702],"snap_distance_m":null,"schools_nearby":[]}},{"type":"Feature","geometry":{"type":"MultiLineString","coordinates":[[[-106.49706,35.15865],[-106.49698,35.15889],[-106.49691,35.15909],[-106.49684,35.15926],[-106.49674,35.1596],[-106.49662,35.15993],[-106.49645,35.16048],[-106.4963,35.16106],[-106.49626,35.16121],[-106.49619,35.16189],[-106.49619,35.1626],[-106.49618,35.16414],[-106.49618,35.16416],[-106.49618,35.16423],[-106.49618,35.16879],[-106.49622,35.17139]]]},"properties":{"id":"osm-13715218470","label":"Tramway Boulevard Northeast speed camera","jurisdiction":"Albuquerque","street":"Tramway Boulevard Northeast","status":"community-mapped","enforcement":["speed"],"maxspeed_mph":50,"maxspeed_source":"OpenStreetMap","last_confirmed":"2026-04-14","sources":[{"url":"https://www.openstreetmap.org/node/13715218470","retrieved":"2026-09-20","note":"mapped by , last edited 2026-04-14"}],"note":"Community-mapped, not published by the city. No survey date recorded","anchor":[-106.49612,35.16656],"snap_distance_m":null,"schools_nearby":[]}},{"type":"Feature","geometry":{"type":"MultiLineString","coordinates":[[[-106.53349,35.1747],[-106.53364,35.17469]]]},"properties":{"id":"osm-14079677763","label":"Paseo del Norte Boulevard Northeast speed camera","jurisdiction":"Albuquerque","street":"Paseo del Norte Boulevard Northeast","status":"community-mapped","enforcement":["speed"],"maxspeed_mph":55,"maxspeed_source":"OpenStreetMap","last_confirmed":"2026-08-07","sources":[{"url":"https://www.openstreetmap.org/node/14079677763","retrieved":"2026-09-20","note":"mapped by , last edited 2026-08-08, surveyed 2026-08-07"}],"note":"Community-mapped, not published by the city. Surveyed 2026-08-07","anchor":[-106.53378,35.17477],"snap_distance_m":null,"schools_nearby":[]}}]}