{"type":"FeatureCollection","features":[{"type":"Feature","geometry":{"type":"Point","coordinates":[-106.64496,35.24862]},"properties":{"name":"Rio Rancho Elementary","city":"Rio Rancho","street":"4601 Pepe Ortiz Rd Se","radius_m":300.0}},{"type":"Feature","geometry":{"type":"Point","coordinates":[-106.72879,35.23921]},"properties":{"name":"Puesta Del Sol Elementary","city":"Rio Rancho","street":"450 Southern Blvd Se","radius_m":300.0}},{"type":"Feature","geometry":{"type":"Point","coordinates":[-106.685,35.25673]},"properties":{"name":"Lincoln Middle","city":"Rio Rancho","street":"2287 Lema Rd Se","radius_m":300.0}},{"type":"Feature","geometry":{"type":"Point","coordinates":[-106.68483,35.23487]},"properties":{"name":"Martin King Jr Elementary","city":"Rio Rancho","street":"1301 Nicklaus Dr Se","radius_m":300.0}},{"type":"Feature","geometry":{"type":"Point","coordinates":[-106.67422,35.27183]},"properties":{"name":"Ernest Stapleton Elementary","city":"Rio Rancho","street":"3100 Stapleton Ave Ne","radius_m":300.0}},{"type":"Feature","geometry":{"type":"Point","coordinates":[-106.58785,35.32673]},"properties":{"name":"Mountain View Middle","city":"Rio Rancho","street":"4101 Montreal Loop Ne","radius_m":300.0}},{"type":"Feature","geometry":{"type":"Point","coordinates":[-106.7149,35.29807]},"properties":{"name":"Colinas Del Norte Elementary","city":"Rio Rancho","street":"1001 Night Sky Ave Ne","radius_m":300.0}},{"type":"Feature","geometry":{"type":"Point","coordinates":[-106.68082,35.27283]},"properties":{"name":"Eagle Ridge Middle","city":"Rio Rancho","street":"800 Fruta Rd","radius_m":300.0}},{"type":"Feature","geometry":{"type":"Point","coordinates":[-106.66808,35.26467]},"properties":{"name":"Rio Rancho High","city":"Rio Rancho","street":"301 Loma Colorado Dr Ne","radius_m":300.0}},{"type":"Feature","geometry":{"type":"Point","coordinates":[-106.63307,35.2649]},"properties":{"name":"Independence High School","city":"Rio Rancho","street":"421 Quantum Rd Ne","radius_m":300.0}},{"type":"Feature","geometry":{"type":"Point","coordinates":[-106.61772,35.34388]},"properties":{"name":"Vista Grande Elementary","city":"Rio Rancho","street":"7001 Chayote Rd Ne","radius_m":300.0}},{"type":"Feature","geometry":{"type":"Point","coordinates":[-106.65594,35.28333]},"properties":{"name":"Rio Rancho Middle School","city":"Rio Rancho","street":"1600 Loma Colorado Dr Ne","radius_m":300.0}},{"type":"Feature","geometry":{"type":"Point","coordinates":[-106.6984,35.23488]},"properties":{"name":"Maggie Cordova Elementary School","city":"Rio Rancho","street":"1500 Veranda Rd Se","radius_m":300.0}},{"type":"Feature","geometry":{"type":"Point","coordinates":[-106.66166,35.29263]},"properties":{"name":"Shining Stars Preschool","city":"Rio Rancho","street":"2100 Lionel Street Ne","radius_m":300.0}},{"type":"Feature","geometry":{"type":"Point","coordinates":[-106.64193,35.31277]},"properties":{"name":"Cleveland High School","city":"Rio Rancho","street":"4800 Cleveland Heights Rd Ne","radius_m":300.0}},{"type":"Feature","geometry":{"type":"Point","coordinates":[-106.70589,35.31732]},"properties":{"name":"Cielo Azul Elementary","city":"Rio Rancho","street":"3804 Shiloh Rd Ne","radius_m":300.0}},{"type":"Feature","geometry":{"type":"Point","coordinates":[-106.59677,35.31926]},"properties":{"name":"Sandia Vista Elementary","city":"Rio Rancho","street":"6800 Franklin Rd Ne","radius_m":300.0}},{"type":"Feature","geometry":{"type":"Point","coordinates":[-106.71563,35.22325]},"properties":{"name":"Joe Harris Elementary","city":"Rio Rancho","street":"2100 10Th Street Se","radius_m":300.0}},{"type":"Feature","geometry":{"type":"Point","coordinates":[-106.6241,35.27821]},"properties":{"name":"Enchanted Hills Elementary","city":"Rio Rancho","street":"5400 Obregon Rd Ne","radius_m":300.0}},{"type":"Feature","geometry":{"type":"Point","coordinates":[-106.63207,35.12011]},"properties":{"name":"Foothill High School","city":"Albuquerque","street":"400 Edith Blvd Ne","radius_m":300.0}},{"type":"Feature","geometry":{"type":"Point","coordinates":[-106.63207,35.12011]},"properties":{"name":"Camino Nuevo Youth","city":"Albuquerque","street":"4050 Edith Blvd Ne","radius_m":300.0}},{"type":"Feature","geometry":{"type":"Point","coordinates":[-106.06075,35.56206]},"properties":{"name":"Penitentiary Of Nm-Santa Fe","city":"Santa Fe","street":"4331 State Highway 14","radius_m":300.0}},{"type":"Feature","geometry":{"type":"Point","coordinates":[-106.53057,35.06172]},"properties":{"name":"Nmsbvi Albuquerque Campus","city":"Albuquerque","street":"801 Stephen Moody St Se","radius_m":300.0}},{"type":"Feature","geometry":{"type":"Point","coordinates":[-105.95718,35.67729]},"properties":{"name":"Nm School For The Deaf","city":"Santa Fe","street":"1060 Cerrillos Rd","radius_m":300.0}},{"type":"Feature","geometry":{"type":"Point","coordinates":[-106.62795,35.1184]},"properties":{"name":"Sequoyah","city":"Albuquerque","street":"3405 Pan American Fwy","radius_m":300.0}},{"type":"Feature","geometry":{"type":"Point","coordinates":[-106.62156,35.09235]},"properties":{"name":"Unm Mimbres School","city":"Albuquerque","street":"1001 Yale Blvd Ne","radius_m":300.0}},{"type":"Feature","geometry":{"type":"Point","coordinates":[-106.39455,35.07662]},"properties":{"name":"A. Montoya Elementary","city":"Tijeras","street":"24 Public School Rd","radius_m":300.0}},{"type":"Feature","geometry":{"type":"Point","coordinates":[-106.70088,35.09857]},"properties":{"name":"John Adams Middle","city":"Albuquerque","street":"5401 Glenrio Rd Nw","radius_m":300.0}},{"type":"Feature","geometry":{"type":"Point","coordinates":[-106.68571,35.02224]},"properties":{"name":"Adobe Acres Elementary","city":"Albuquerque","street":"1724 Camino Del Valle Sw","radius_m":300.0}},{"type":"Feature","geometry":{"type":"Point","coordinates":[-106.61892,35.19001]},"properties":{"name":"Alameda Elementary","city":"Albuquerque","street":"412 Alameda Blvd Nw","radius_m":300.0}},{"type":"Feature","geometry":{"type":"Point","coordinates":[-106.70544,35.07174]},"properties":{"name":"Alamosa Elementary","city":"Albuquerque","street":"6500 Sunset Gardens Rd Sw","radius_m":300.0}},{"type":"Feature","geometry":{"type":"Point","coordinates":[-106.63582,35.09619]},"properties":{"name":"Albuquerque High","city":"Albuquerque","street":"800 Odelia Rd Ne","radius_m":300.0}},{"type":"Feature","geometry":{"type":"Point","coordinates":[-106.65426,35.15134]},"properties":{"name":"Alvarado Elementary","city":"Albuquerque","street":"1100 Solar Rd Nw","radius_m":300.0}},{"type":"Feature","geometry":{"type":"Point","coordinates":[-106.50223,35.07856]},"properties":{"name":"Apache Elementary","city":"Albuquerque","street":"12800 Copper St Ne","radius_m":300.0}},{"type":"Feature","geometry":{"type":"Point","coordinates":[-106.67365,35.06163]},"properties":{"name":"Armijo Elementary","city":"Albuquerque","street":"1440 Gatewood Rd Sw","radius_m":300.0}},{"type":"Feature","geometry":{"type":"Point","coordinates":[-106.5753,35.15266]},"properties":{"name":"Arroyo Del Oso Elementary","city":"Albuquerque","street":"6504 Harper Ne","radius_m":300.0}},{"type":"Feature","geometry":{"type":"Point","coordinates":[-106.69386,35.06201]},"properties":{"name":"Atrisco Elementary","city":"Albuquerque","street":"1201 Atrisco Rd Sw","radius_m":300.0}},{"type":"Feature","geometry":{"type":"Point","coordinates":[-106.60758,35.07071]},"properties":{"name":"Bandelier Elementary","city":"Albuquerque","street":"3309 Pershing St Se","radius_m":300.0}},{"type":"Feature","geometry":{"type":"Point","coordinates":[-106.69294,35.03138]},"properties":{"name":"Barcelona Elementary","city":"Albuquerque","street":"2311 Barcelona Rd Sw","radius_m":300.0}},{"type":"Feature","geometry":{"type":"Point","coordinates":[-106.59236,35.11727]},"properties":{"name":"Bel-Air Elementary","city":"Albuquerque","street":"4725 Candelaria Rd Ne","radius_m":300.0}},{"type":"Feature","geometry":{"type":"Point","coordinates":[-106.54689,35.09811]},"properties":{"name":"Bellehaven Elementary","city":"Albuquerque","street":"8701 Princess Jeanne St Ne","radius_m":300.0}},{"type":"Feature","geometry":{"type":"Point","coordinates":[-106.75029,35.05195]},"properties":{"name":"Carlos Rey Elementary","city":"Albuquerque","street":"1215 Cerrillos Rd Sw","radius_m":300.0}},{"type":"Feature","geometry":{"type":"Point","coordinates":[-106.71187,35.133]},"properties":{"name":"Chaparral Elementary","city":"Albuquerque","street":"6325 Milne Rd Nw","radius_m":300.0}},{"type":"Feature","geometry":{"type":"Point","coordinates":[-106.50546,35.09456]},"properties":{"name":"Chelwood Elementary","city":"Albuquerque","street":"12701 Constitution Av Ne","radius_m":300.0}},{"type":"Feature","geometry":{"type":"Point","coordinates":[-106.66345,35.20466]},"properties":{"name":"Cibola High","city":"Albuquerque","street":"1510 Ellison Dr Nw","radius_m":300.0}},{"type":"Feature","geometry":{"type":"Point","coordinates":[-106.68164,35.1846]},"properties":{"name":"Petroglyph Elementary","city":"Albuquerque","street":"5100 Marna Lynn Ave Nw","radius_m":300.0}},{"type":"Feature","geometry":{"type":"Point","coordinates":[-106.66503,35.11584]},"properties":{"name":"Cochiti Elementary","city":"Albuquerque","street":"3100 San Isidro Rd Nw","radius_m":300.0}},{"type":"Feature","geometry":{"type":"Point","coordinates":[-106.52386,35.1066]},"properties":{"name":"Collet Park Elementary","city":"Albuquerque","street":"2100 Morris St Ne","radius_m":300.0}},{"type":"Feature","geometry":{"type":"Point","coordinates":[-106.56082,35.12368]},"properties":{"name":"Comanche Elementary","city":"Albuquerque","street":"3505 Pennsylvania St Ne","radius_m":300.0}},{"type":"Feature","geometry":{"type":"Point","coordinates":[-106.65343,35.08995]},"properties":{"name":"Lew Wallace Elementary","city":"Albuquerque","street":"513 Sixth St Nw","radius_m":300.0}},{"type":"Feature","geometry":{"type":"Point","coordinates":[-106.58394,35.13215]},"properties":{"name":"Del Norte High","city":"Albuquerque","street":"5323 Montgomery Ne","radius_m":300.0}},{"type":"Feature","geometry":{"type":"Point","coordinates":[-106.6593,35.07668]},"properties":{"name":"Dolores Gonzales Elementary","city":"Albuquerque","street":"900 Atlantic St Sw","radius_m":300.0}},{"type":"Feature","geometry":{"type":"Point","coordinates":[-106.64974,35.1369]},"properties":{"name":"Macarthur Elementary","city":"Albuquerque","street":"1100 Macarthur Rd Nw","radius_m":300.0}},{"type":"Feature","geometry":{"type":"Point","coordinates":[-106.6742,35.11108]},"properties":{"name":"Duranes Elementary","city":"Albuquerque","street":"2436 Zickert Rd Nw","radius_m":300.0}},{"type":"Feature","geometry":{"type":"Point","coordinates":[-106.64603,35.06227]},"properties":{"name":"East San Jose Elementary","city":"Albuquerque","street":"415 Thaxton Ave Se","radius_m":300.0}},{"type":"Feature","geometry":{"type":"Point","coordinates":[-106.51706,35.14573]},"properties":{"name":"Eisenhower Middle","city":"Albuquerque","street":"11001 Camero Rd Ne","radius_m":300.0}},{"type":"Feature","geometry":{"type":"Point","coordinates":[-106.51317,35.12835]},"properties":{"name":"Eldorado High","city":"Albuquerque","street":"11300 Montgomery Blvd Ne","radius_m":300.0}},{"type":"Feature","geometry":{"type":"Point","coordinates":[-106.57161,35.06808]},"properties":{"name":"Emerson Elementary","city":"Albuquerque","street":"620 Georgia St Se","radius_m":300.0}},{"type":"Feature","geometry":{"type":"Point","coordinates":[-106.68205,35.04874]},"properties":{"name":"Ernie Pyle Middle","city":"Albuquerque","street":"1820 Valdora Dr Sw","radius_m":300.0}},{"type":"Feature","geometry":{"type":"Point","coordinates":[-106.53641,35.10215]},"properties":{"name":"Janet Kahn Fine Arts Academy","city":"Albuquerque","street":"9717 Indian School Rd Ne","radius_m":300.0}},{"type":"Feature","geometry":{"type":"Point","coordinates":[-106.64255,35.07681]},"properties":{"name":"Eugene Field Elementary","city":"Albuquerque","street":"700 Edith Blvd Se","radius_m":300.0}},{"type":"Feature","geometry":{"type":"Point","coordinates":[-106.58598,35.10499]},"properties":{"name":"Freedom High","city":"Albuquerque","street":"5200 Cutler Ne","radius_m":300.0}},{"type":"Feature","geometry":{"type":"Point","coordinates":[-106.64939,35.11811]},"properties":{"name":"Garfield Middle","city":"Albuquerque","street":"3501 Sixth St Nw","radius_m":300.0}},{"type":"Feature","geometry":{"type":"Point","coordinates":[-106.58053,35.12903]},"properties":{"name":"Gov Bent Elementary","city":"Albuquerque","street":"5700 Hendrix Rd Ne","radius_m":300.0}},{"type":"Feature","geometry":{"type":"Point","coordinates":[-106.54153,35.09194]},"properties":{"name":"Grant Middle","city":"Albuquerque","street":"1111 Easterday Ne","radius_m":300.0}},{"type":"Feature","geometry":{"type":"Point","coordinates":[-106.66394,35.12882]},"properties":{"name":"Griegos Elementary","city":"Albuquerque","street":"4040 San Isidro Nw","radius_m":300.0}},{"type":"Feature","geometry":{"type":"Point","coordinates":[-106.67835,35.0182]},"properties":{"name":"Harrison Middle","city":"Albuquerque","street":"3912 Isleta Blvd Sw","radius_m":300.0}},{"type":"Feature","geometry":{"type":"Point","coordinates":[-106.54173,35.0795]},"properties":{"name":"Hawthorne Elementary","city":"Albuquerque","street":"420 General Somervell St Ne","radius_m":300.0}},{"type":"Feature","geometry":{"type":"Point","coordinates":[-106.55493,35.08991]},"properties":{"name":"Hayes Middle","city":"Albuquerque","street":"1100 Texas St Ne","radius_m":300.0}},{"type":"Feature","geometry":{"type":"Point","coordinates":[-106.59241,35.07484]},"properties":{"name":"Highland High","city":"Albuquerque","street":"4700 Coal Av Se","radius_m":300.0}},{"type":"Feature","geometry":{"type":"Point","coordinates":[-106.6005,35.12565]},"properties":{"name":"Hodgin Elementary","city":"Albuquerque","street":"3801 Morningside Dr Ne","radius_m":300.0}},{"type":"Feature","geometry":{"type":"Point","coordinates":[-106.69612,35.16157]},"properties":{"name":"L.B. Johnson Middle","city":"Albuquerque","street":"6811 Taylor Ranch Dr Nw","radius_m":300.0}},{"type":"Feature","geometry":{"type":"Point","coordinates":[-106.5056,35.12197]},"properties":{"name":"Hoover Middle","city":"Albuquerque","street":"12015 Tivoli Ne","radius_m":300.0}},{"type":"Feature","geometry":{"type":"Point","coordinates":[-106.55913,35.10096]},"properties":{"name":"Inez Elementary","city":"Albuquerque","street":"1700 Pennsylvania St Ne","radius_m":300.0}},{"type":"Feature","geometry":{"type":"Point","coordinates":[-106.52764,35.10089]},"properties":{"name":"Jackson Middle","city":"Albuquerque","street":"10600 Indian School Rd Ne","radius_m":300.0}},{"type":"Feature","geometry":{"type":"Point","coordinates":[-106.61228,35.08828]},"properties":{"name":"Jefferson Middle","city":"Albuquerque","street":"712 Girard Ne","radius_m":300.0}},{"type":"Feature","geometry":{"type":"Point","coordinates":[-106.50516,35.12293]},"properties":{"name":"John Baker Elementary","city":"Albuquerque","street":"12015-B Tivoli St Ne","radius_m":300.0}},{"type":"Feature","geometry":{"type":"Point","coordinates":[-106.52472,35.08356]},"properties":{"name":"Kennedy Middle","city":"Albuquerque","street":"721 Tomasita Ne","radius_m":300.0}},{"type":"Feature","geometry":{"type":"Point","coordinates":[-106.60512,35.05737]},"properties":{"name":"Kirtland Elementary","city":"Albuquerque","street":"3530 Gibson Blvd Se","radius_m":300.0}},{"type":"Feature","geometry":{"type":"Point","coordinates":[-106.68546,35.0494]},"properties":{"name":"Kit Carson Elementary","city":"Albuquerque","street":"1921 Byron Av Sw","radius_m":300.0}},{"type":"Feature","geometry":{"type":"Point","coordinates":[-106.56262,35.07955]},"properties":{"name":"La Mesa Elementary","city":"Albuquerque","street":"7500 Copper Av Ne","radius_m":300.0}},{"type":"Feature","geometry":{"type":"Point","coordinates":[-106.70445,35.09026]},"properties":{"name":"Lavaland Elementary","city":"Albuquerque","street":"501 57Th St Nw","radius_m":300.0}},{"type":"Feature","geometry":{"type":"Point","coordinates":[-106.64127,35.08606]},"properties":{"name":"Longfellow Elementary","city":"Albuquerque","street":"400 Edith Ne","radius_m":300.0}},{"type":"Feature","geometry":{"type":"Point","coordinates":[-106.70877,34.95741]},"properties":{"name":"Los Padillas Elementary","city":"Albuquerque","street":"2525 Los Padillas Rd Sw","radius_m":300.0}},{"type":"Feature","geometry":{"type":"Point","coordinates":[-106.62843,35.06303]},"properties":{"name":"Lowell Elementary","city":"Albuquerque","street":"1700 Sunshine Terrace Se","radius_m":300.0}},{"type":"Feature","geometry":{"type":"Point","coordinates":[-106.54327,35.12237]},"properties":{"name":"Madison Middle","city":"Albuquerque","street":"3501 Moon St Ne","radius_m":300.0}},{"type":"Feature","geometry":{"type":"Point","coordinates":[-106.51116,35.08524]},"properties":{"name":"Manzano High","city":"Albuquerque","street":"12200 Lomas Blvd Ne","radius_m":300.0}},{"type":"Feature","geometry":{"type":"Point","coordinates":[-106.57368,35.09364]},"properties":{"name":"Mark Twain Elementary","city":"Albuquerque","street":"6316 Constitution Ave Ne","radius_m":300.0}},{"type":"Feature","geometry":{"type":"Point","coordinates":[-106.52041,35.11387]},"properties":{"name":"Matheson Park Elementary","city":"Albuquerque","street":"10809 Lexington Ave Ne","radius_m":300.0}},{"type":"Feature","geometry":{"type":"Point","coordinates":[-106.52742,35.08979]},"properties":{"name":"Mccollum Elementary","city":"Albuquerque","street":"10900 San Jacinto St Ne","radius_m":300.0}},{"type":"Feature","geometry":{"type":"Point","coordinates":[-106.61715,35.14124]},"properties":{"name":"Mission Avenue Elementary","city":"Albuquerque","street":"725 Mission Av Ne","radius_m":300.0}},{"type":"Feature","geometry":{"type":"Point","coordinates":[-106.52782,35.1239]},"properties":{"name":"Mitchell Elementary","city":"Albuquerque","street":"10121 Comanche Rd Ne","radius_m":300.0}},{"type":"Feature","geometry":{"type":"Point","coordinates":[-106.61035,35.0827]},"properties":{"name":"Monte Vista Elementary","city":"Albuquerque","street":"3211 Monte Vista Blvd Ne","radius_m":300.0}},{"type":"Feature","geometry":{"type":"Point","coordinates":[-106.6097,35.1012]},"properties":{"name":"Montezuma Elementary","city":"Albuquerque","street":"3100 Indian School Ne","radius_m":300.0}},{"type":"Feature","geometry":{"type":"Point","coordinates":[-106.66488,35.00235]},"properties":{"name":"Mountain View Elementary","city":"Albuquerque","street":"5317 Second St Sw","radius_m":300.0}},{"type":"Feature","geometry":{"type":"Point","coordinates":[-106.70967,35.0329]},"properties":{"name":"Navajo Elementary","city":"Albuquerque","street":"2936 Hughes Rd Sw","radius_m":300.0}},{"type":"Feature","geometry":{"type":"Point","coordinates":[-106.67961,35.09897]},"properties":{"name":"Reginald Chavez Elementary","city":"Albuquerque","street":"2700 Mountain Rd Nw","radius_m":300.0}},{"type":"Feature","geometry":{"type":"Point","coordinates":[-106.50352,35.10524]},"properties":{"name":"Onate Elementary","city":"Albuquerque","street":"12415 Brentwood Hills Ne","radius_m":300.0}},{"type":"Feature","geometry":{"type":"Point","coordinates":[-106.54309,35.13503]},"properties":{"name":"Osuna Elementary","city":"Albuquerque","street":"4715 Moon St Ne","radius_m":300.0}},{"type":"Feature","geometry":{"type":"Point","coordinates":[-106.71244,35.00198]},"properties":{"name":"Pajarito Elementary","city":"Albuquerque","street":"2701 Don Felipe Sw","radius_m":300.0}},{"type":"Feature","geometry":{"type":"Point","coordinates":[-106.70317,34.97843]},"properties":{"name":"Polk Middle","city":"Albuquerque","street":"2220 Raymac Rd Sw","radius_m":300.0}},{"type":"Feature","geometry":{"type":"Point","coordinates":[-106.63666,35.17008]},"properties":{"name":"Los Ranchos Elementary","city":"Albuquerque","street":"7609 Fourth St Nw","radius_m":300.0}},{"type":"Feature","geometry":{"type":"Point","coordinates":[-106.69446,35.05035]},"properties":{"name":"Rio Grande High","city":"Albuquerque","street":"2300 Arenal Rd Sw","radius_m":300.0}},{"type":"Feature","geometry":{"type":"Point","coordinates":[-106.39087,35.07693]},"properties":{"name":"Roosevelt Middle","city":"Tijeras","street":"11799 State Highway 14S","radius_m":300.0}},{"type":"Feature","geometry":{"type":"Point","coordinates":[-106.50919,35.13513]},"properties":{"name":"S. Y. Jackson Elementary","city":"Albuquerque","street":"4720 Cairo Dr Ne","radius_m":300.0}},{"type":"Feature","geometry":{"type":"Point","coordinates":[-106.34093,35.171]},"properties":{"name":"San Antonito Elementary","city":"Sandia Park","street":"12555 N Hwy 14","radius_m":300.0}},{"type":"Feature","geometry":{"type":"Point","coordinates":[-106.5497,35.06236]},"properties":{"name":"Sandia Base Elementary","city":"Albuquerque","street":"21001 Wyoming Se Kafb East","radius_m":300.0}},{"type":"Feature","geometry":{"type":"Point","coordinates":[-106.55845,35.11744]},"properties":{"name":"Sandia High","city":"Albuquerque","street":"7801 Candelaria Ne","radius_m":300.0}},{"type":"Feature","geometry":{"type":"Point","coordinates":[-106.61325,35.22799]},"properties":{"name":"Corrales Elementary","city":"Corrales","street":"200 Target Rd","radius_m":300.0}},{"type":"Feature","geometry":{"type":"Point","coordinates":[-106.66875,35.06891]},"properties":{"name":"School On Wheels High School","city":"Albuquerque","street":"129 Hartline Rd Sw","radius_m":300.0}},{"type":"Feature","geometry":{"type":"Point","coordinates":[-106.70836,35.19957]},"properties":{"name":"Sierra Vista Elementary","city":"Albuquerque","street":"10220 Paseo Del Norte Nw","radius_m":300.0}},{"type":"Feature","geometry":{"type":"Point","coordinates":[-106.54092,35.11734]},"properties":{"name":"Sombra Del Monte Elementary","city":"Albuquerque","street":"9110 Shoshone Rd Ne","radius_m":300.0}},{"type":"Feature","geometry":{"type":"Point","coordinates":[-106.64296,35.15516]},"properties":{"name":"Taft Middle","city":"Albuquerque","street":"620 Schulte Rd Nw","radius_m":300.0}},{"type":"Feature","geometry":{"type":"Point","coordinates":[-106.63735,35.17624]},"properties":{"name":"Taylor Middle","city":"Los Ranchos De Albuquerque","street":"8200 Guadalupe Tr Nw","radius_m":300.0}},{"type":"Feature","geometry":{"type":"Point","coordinates":[-106.5247,35.08164]},"properties":{"name":"Tomasita Elementary","city":"Albuquerque","street":"701 Tomasita St Ne","radius_m":300.0}},{"type":"Feature","geometry":{"type":"Point","coordinates":[-106.73809,35.05141]},"properties":{"name":"Truman Middle","city":"Albuquerque","street":"9400 Benavides Rd Sw","radius_m":300.0}},{"type":"Feature","geometry":{"type":"Point","coordinates":[-106.68208,35.07717]},"properties":{"name":"Valle Vista Elementary","city":"Albuquerque","street":"1700 Mae Av Sw","radius_m":300.0}},{"type":"Feature","geometry":{"type":"Point","coordinates":[-106.6609,35.12489]},"properties":{"name":"Valley High","city":"Albuquerque","street":"1505 Candelaria Rd Nw","radius_m":300.0}},{"type":"Feature","geometry":{"type":"Point","coordinates":[-106.56782,35.06625]},"properties":{"name":"Van Buren Middle","city":"Albuquerque","street":"700 Louisiana Se","radius_m":300.0}},{"type":"Feature","geometry":{"type":"Point","coordinates":[-106.66169,35.08614]},"properties":{"name":"Washington Middle","city":"Albuquerque","street":"1101 Park Sw","radius_m":300.0}},{"type":"Feature","geometry":{"type":"Point","coordinates":[-106.71543,35.09527]},"properties":{"name":"West Mesa High","city":"Albuquerque","street":"6701 Fortuna Rd Nw","radius_m":300.0}},{"type":"Feature","geometry":{"type":"Point","coordinates":[-106.56288,35.05735]},"properties":{"name":"Wherry Elementary","city":"Albuquerque","street":"Bldg 25000 - Kafb East","radius_m":300.0}},{"type":"Feature","geometry":{"type":"Point","coordinates":[-106.58867,35.06465]},"properties":{"name":"Whittier Elementary","city":"Albuquerque","street":"1110 Quincy St Se","radius_m":300.0}},{"type":"Feature","geometry":{"type":"Point","coordinates":[-106.57884,35.06147]},"properties":{"name":"Wilson Middle","city":"Albuquerque","street":"1138 Cardenas Dr Se","radius_m":300.0}},{"type":"Feature","geometry":{"type":"Point","coordinates":[-106.58429,35.10521]},"properties":{"name":"New Futures High School","city":"Albuquerque","street":"5400 Cutler Ne","radius_m":300.0}},{"type":"Feature","geometry":{"type":"Point","coordinates":[-106.5923,35.08597]},"properties":{"name":"Zia Elementary","city":"Albuquerque","street":"440 Jefferson St Ne","radius_m":300.0}},{"type":"Feature","geometry":{"type":"Point","coordinates":[-106.57522,35.11221]},"properties":{"name":"Zuni Elementary","city":"Albuquerque","street":"6300 Claremont Ave Ne","radius_m":300.0}},{"type":"Feature","geometry":{"type":"Point","coordinates":[-106.59183,35.12123]},"properties":{"name":"Desert Willow Family School","city":"Albuquerque","street":"3303 Monroe Ne","radius_m":300.0}},{"type":"Feature","geometry":{"type":"Point","coordinates":[-106.63565,35.09445]},"properties":{"name":"Career Enrichment","city":"Albuquerque","street":"807 Mountain Rd Ne","radius_m":300.0}},{"type":"Feature","geometry":{"type":"Point","coordinates":[-106.53484,35.11296]},"properties":{"name":"Sierra Alternative","city":"Albuquerque","street":"2611 Eubank Ne","radius_m":300.0}},{"type":"Feature","geometry":{"type":"Point","coordinates":[-106.59446,35.12199]},"properties":{"name":"Mckinley Middle","city":"Albuquerque","street":"4500 Comanche Rd Ne","radius_m":300.0}},{"type":"Feature","geometry":{"type":"Point","coordinates":[-106.52977,35.15113]},"properties":{"name":"Hubert H Humphrey Elementary","city":"Albuquerque","street":"9801 Academy Hills Dr Ne","radius_m":300.0}},{"type":"Feature","geometry":{"type":"Point","coordinates":[-106.56946,35.12832]},"properties":{"name":"Cleveland Middle","city":"Albuquerque","street":"6910 Natalie St Ne","radius_m":300.0}},{"type":"Feature","geometry":{"type":"Point","coordinates":[-106.70125,35.16895]},"properties":{"name":"Chamiza Elementary","city":"Albuquerque","street":"5401 Homestead Cir Nw","radius_m":300.0}},{"type":"Feature","geometry":{"type":"Point","coordinates":[-106.57314,35.1722]},"properties":{"name":"Edmund G Ross Elementary","city":"Albuquerque","street":"6700 Palomas Ne","radius_m":300.0}},{"type":"Feature","geometry":{"type":"Point","coordinates":[-106.55026,35.16766]},"properties":{"name":"Dennis Chavez Elementary","city":"Albuquerque","street":"7500 Barstow Ne","radius_m":300.0}},{"type":"Feature","geometry":{"type":"Point","coordinates":[-106.70482,35.16094]},"properties":{"name":"Marie M Hughes Elementary","city":"Albuquerque","street":"5701 Mojave Nw","radius_m":300.0}},{"type":"Feature","geometry":{"type":"Point","coordinates":[-106.72623,35.0513]},"properties":{"name":"Maryann Binford Elementary","city":"Albuquerque","street":"1400 Corriz Sw","radius_m":300.0}},{"type":"Feature","geometry":{"type":"Point","coordinates":[-106.55535,35.18324]},"properties":{"name":"La Cueva High","city":"Albuquerque","street":"7801 Wilshire Ne","radius_m":300.0}},{"type":"Feature","geometry":{"type":"Point","coordinates":[-106.63796,35.13323]},"properties":{"name":"Continuation School","city":"Albuquerque","street":"5100 2Nd St Nw","radius_m":300.0}},{"type":"Feature","geometry":{"type":"Point","coordinates":[-106.71831,35.10518]},"properties":{"name":"Susie Rayos Marmon Elementary","city":"Albuquerque","street":"1800 72Nd St Nw","radius_m":300.0}},{"type":"Feature","geometry":{"type":"Point","coordinates":[-106.50947,35.1492]},"properties":{"name":"Georgia O'Keeffe Elementary","city":"Albuquerque","street":"11701 San Victorio Ne","radius_m":300.0}},{"type":"Feature","geometry":{"type":"Point","coordinates":[-106.50817,35.1868]},"properties":{"name":"Double Eagle Elementary","city":"Albuquerque","street":"8901 Lowell St Ne","radius_m":300.0}},{"type":"Feature","geometry":{"type":"Point","coordinates":[-106.55021,35.17954]},"properties":{"name":"Desert Ridge Middle","city":"Albuquerque","street":"8400 Barstow Ne","radius_m":300.0}},{"type":"Feature","geometry":{"type":"Point","coordinates":[-106.73593,35.09513]},"properties":{"name":"Painted Sky Elementary","city":"Albuquerque","street":"8101 Gavin Dr Nw","radius_m":300.0}},{"type":"Feature","geometry":{"type":"Point","coordinates":[-106.34358,35.17558]},"properties":{"name":"East Mountain High School","city":"Sandia Park","street":"25 La Madera Road","radius_m":300.0}},{"type":"Feature","geometry":{"type":"Point","coordinates":[-106.70997,35.03596]},"properties":{"name":"South Valley Academy","city":"Albuquerque","street":"3426 Blake Road Sw","radius_m":300.0}},{"type":"Feature","geometry":{"type":"Point","coordinates":[-106.73077,35.08335]},"properties":{"name":"Jimmy Carter Middle","city":"Albuquerque","street":"8901 Bluewater Nw","radius_m":300.0}},{"type":"Feature","geometry":{"type":"Point","coordinates":[-106.71087,35.07257]},"properties":{"name":"Mark Armijo Academy","city":"Albuquerque","street":"6800 Gonzales Rd Sw","radius_m":300.0}},{"type":"Feature","geometry":{"type":"Point","coordinates":[-106.51758,35.09614]},"properties":{"name":"Public Academy For Performing Arts","city":"Albuquerque","street":"11800 Princess Jeanne Ave. Ne","radius_m":300.0}},{"type":"Feature","geometry":{"type":"Point","coordinates":[-106.72332,35.03719]},"properties":{"name":"Robert F. Kennedy Charter","city":"Albuquerque","street":"4300 Blake Rd Sw","radius_m":300.0}},{"type":"Feature","geometry":{"type":"Point","coordinates":[-106.67195,35.20477]},"properties":{"name":"Seven Bar Elementary","city":"Albuquerque","street":"4501 Seven Bar Loop Nw","radius_m":300.0}},{"type":"Feature","geometry":{"type":"Point","coordinates":[-106.71645,35.19173]},"properties":{"name":"James Monroe Middle","city":"Albuquerque","street":"6100 Paradise Blvd Nw","radius_m":300.0}},{"type":"Feature","geometry":{"type":"Point","coordinates":[-106.64371,35.12443]},"properties":{"name":"Los Puentes Charter","city":"Albuquerque","street":"4012 4Th St. Nw","radius_m":300.0}},{"type":"Feature","geometry":{"type":"Point","coordinates":[-106.63322,35.11161]},"properties":{"name":"Digital Arts And Technology Academy","city":"Albuquerque","street":"1011 Lamberton Ne","radius_m":300.0}},{"type":"Feature","geometry":{"type":"Point","coordinates":[-106.68284,35.02261]},"properties":{"name":"El Camino Real Academy","city":"Albuquerque","street":"3713 Isleta Blvd Sw","radius_m":300.0}},{"type":"Feature","geometry":{"type":"Point","coordinates":[-106.70088,35.09857]},"properties":{"name":"Vision Quest Alternative Middle","city":"Albuquerque","street":"5401 Glenrio Rd Nw","radius_m":300.0}},{"type":"Feature","geometry":{"type":"Point","coordinates":[-106.70531,35.05843]},"properties":{"name":"La Academia De Esperanza","city":"Albuquerque","street":"1401 Old Coors Rd Sw","radius_m":300.0}},{"type":"Feature","geometry":{"type":"Point","coordinates":[-106.52655,35.08377]},"properties":{"name":"Gilbert L Sena Charter Hs","city":"Albuquerque","street":"69 Hotel Cir Ne","radius_m":300.0}},{"type":"Feature","geometry":{"type":"Point","coordinates":[-106.64251,35.08623]},"properties":{"name":"Abq Charter Academy","city":"Albuquerque","street":"405 Dr. Martin Luther King Jr. Ave. Ne","radius_m":300.0}},{"type":"Feature","geometry":{"type":"Point","coordinates":[-106.68257,35.11121]},"properties":{"name":"Montessori Of The Rio Grande","city":"Albuquerque","street":"1650 Gabaldon Dr. N.W.","radius_m":300.0}},{"type":"Feature","geometry":{"type":"Point","coordinates":[-106.5247,35.06214]},"properties":{"name":"Manzano Mesa Elementary","city":"Albuquerque","street":"801 Elizabeth St Se","radius_m":300.0}},{"type":"Feature","geometry":{"type":"Point","coordinates":[-106.73289,35.0647]},"properties":{"name":"Edward Gonzales Elementary","city":"Albuquerque","street":"554 90Th St Sw","radius_m":300.0}},{"type":"Feature","geometry":{"type":"Point","coordinates":[-106.73176,35.19598]},"properties":{"name":"Ventana Ranch Elementary","city":"Albuquerque","street":"6801 Ventana Village Rd Nw","radius_m":300.0}},{"type":"Feature","geometry":{"type":"Point","coordinates":[-106.63565,35.09445]},"properties":{"name":"Early College Academy","city":"Albuquerque","street":"807 Mountain Rd Ne","radius_m":300.0}},{"type":"Feature","geometry":{"type":"Point","coordinates":[-106.65596,35.10744]},"properties":{"name":"Native American Community Academy","city":"Albuquerque","street":"1000 Indian School Rd","radius_m":300.0}},{"type":"Feature","geometry":{"type":"Point","coordinates":[-106.64032,35.13304]},"properties":{"name":"Mountain Mahogany Community School","city":"Albuquerque","street":"5014 4Th Street Nw","radius_m":300.0}},{"type":"Feature","geometry":{"type":"Point","coordinates":[-106.55696,35.0914]},"properties":{"name":"Alice King Community School","city":"Albuquerque","street":"8100 Mountain Rd. Ne","radius_m":300.0}},{"type":"Feature","geometry":{"type":"Point","coordinates":[-106.70025,35.10889]},"properties":{"name":"Christine Duncan Heritage Academy","city":"Albuquerque","street":"1900 Atrisco Dr. Nw","radius_m":300.0}},{"type":"Feature","geometry":{"type":"Point","coordinates":[-106.54345,35.19246]},"properties":{"name":"North Star Elementary","city":"Albuquerque","street":"9301 Ventura Ne","radius_m":300.0}},{"type":"Feature","geometry":{"type":"Point","coordinates":[-106.73396,35.17817]},"properties":{"name":"Volcano Vista High","city":"Albuquerque","street":"8100 Rainbow Rd Nw","radius_m":300.0}},{"type":"Feature","geometry":{"type":"Point","coordinates":[-106.74327,35.17906]},"properties":{"name":"Tierra Antigua Elementary","city":"Albuquerque","street":"8121 Rainbow Blvd Nw","radius_m":300.0}},{"type":"Feature","geometry":{"type":"Point","coordinates":[-106.69991,35.10787]},"properties":{"name":"Albuquerque Talent Development Charter","city":"Albuquerque","street":"1800 Atrisco Rd Nw","radius_m":300.0}},{"type":"Feature","geometry":{"type":"Point","coordinates":[-106.58321,35.18128]},"properties":{"name":"Corrales International","city":"Albuquerque","street":"5500 Wilshire Ave. Ne","radius_m":300.0}},{"type":"Feature","geometry":{"type":"Point","coordinates":[-106.73231,35.03536]},"properties":{"name":"Rudolfo Anaya Elementary","city":"Albuquerque","street":"2800 Vermejo Park Dr Sw","radius_m":300.0}},{"type":"Feature","geometry":{"type":"Point","coordinates":[-106.71614,35.18989]},"properties":{"name":"Sunset View Elementary","city":"Albuquerque","street":"6121 Paradise Blvd Nw","radius_m":300.0}},{"type":"Feature","geometry":{"type":"Point","coordinates":[-106.74957,35.0229]},"properties":{"name":"Atrisco Heritage Academy Hs","city":"Albuquerque","street":"10800 Dennis Chavez Blv Sw","radius_m":300.0}},{"type":"Feature","geometry":{"type":"Point","coordinates":[-106.64645,35.11317]},"properties":{"name":"Gordon Bernell Charter","city":"Albuquerque","street":"2821 4Th Street Nw","radius_m":300.0}},{"type":"Feature","geometry":{"type":"Point","coordinates":[-106.73367,35.0661]},"properties":{"name":"Helen Cordero Primary","city":"Albuquerque","street":"8800 Eucariz Sw","radius_m":300.0}},{"type":"Feature","geometry":{"type":"Point","coordinates":[-106.67767,35.05061]},"properties":{"name":"New America School","city":"Albuquerque","street":"1734 Isleta Blvd Sw","radius_m":300.0}},{"type":"Feature","geometry":{"type":"Point","coordinates":[-106.73724,35.17815]},"properties":{"name":"Tony Hillerman Middle School","city":"Albuquerque","street":"8101 Rainbow Blvd Nw","radius_m":300.0}},{"type":"Feature","geometry":{"type":"Point","coordinates":[-106.62396,35.05334]},"properties":{"name":"Cien Aguas International","city":"Albuquerque","street":"2000 Randolph Rd. Se","radius_m":300.0}},{"type":"Feature","geometry":{"type":"Point","coordinates":[-106.65297,35.07921]},"properties":{"name":"Coronado Elementary","city":"Albuquerque","street":"601 4Th St Sw","radius_m":300.0}},{"type":"Feature","geometry":{"type":"Point","coordinates":[-106.62374,34.99004]},"properties":{"name":"The International School At Mesa Del Sol","city":"Albuquerque","street":"2000 Bobby Foster Rd","radius_m":300.0}},{"type":"Feature","geometry":{"type":"Point","coordinates":[-106.56463,35.13169]},"properties":{"name":"New Mexico International School","city":"Albuquerque","street":"7215 Montgomery Blvd Ne","radius_m":300.0}},{"type":"Feature","geometry":{"type":"Point","coordinates":[-106.66094,35.1]},"properties":{"name":"Ace Leadership High School","city":"Albuquerque","street":"1240 Bellamah Ave. Nw","radius_m":300.0}},{"type":"Feature","geometry":{"type":"Point","coordinates":[-106.58211,35.13331]},"properties":{"name":"Nex Gen Academy","city":"Albuquerque","street":"5325 Montgomery Ne","radius_m":300.0}},{"type":"Feature","geometry":{"type":"Point","coordinates":[-106.59083,35.07615]},"properties":{"name":"Highland Autism Center","city":"Albuquerque","street":"220 Monroe Sw","radius_m":300.0}},{"type":"Feature","geometry":{"type":"Point","coordinates":[-106.59463,35.07763]},"properties":{"name":"Coral Community Charter","city":"Albuquerque","street":"4401 Silver Avenue Se","radius_m":300.0}},{"type":"Feature","geometry":{"type":"Point","coordinates":[-106.64349,35.07187]},"properties":{"name":"William W & Josephine Dorn Charter  Community School","city":"Albuquerque","street":"1119 Edith Blvd Se","radius_m":300.0}},{"type":"Feature","geometry":{"type":"Point","coordinates":[-106.59465,35.15434]},"properties":{"name":"Health Leadership High School","city":"Albuquerque","street":"6401 Jefferson Street Ne","radius_m":300.0}},{"type":"Feature","geometry":{"type":"Point","coordinates":[-106.58497,35.10455]},"properties":{"name":"Ecademy","city":"Albuquerque","street":"5300 Cutler Ne","radius_m":300.0}},{"type":"Feature","geometry":{"type":"Point","coordinates":[-106.62487,35.07534]},"properties":{"name":"College And Career High School","city":"Albuquerque","street":"525 Buena Vista Dr Se","radius_m":300.0}},{"type":"Feature","geometry":{"type":"Point","coordinates":[-106.52956,35.05498]},"properties":{"name":"Technology Leadership High School","city":"Albuquerque","street":"10500 Research Rd Se","radius_m":300.0}},{"type":"Feature","geometry":{"type":"Point","coordinates":[-106.74856,35.01952]},"properties":{"name":"George I Sanchez","city":"Albuquerque","street":"4050 118Th St Sw","radius_m":300.0}},{"type":"Feature","geometry":{"type":"Point","coordinates":[-106.65385,35.08462]},"properties":{"name":"Siembra Leadership High School","city":"Albuquerque","street":"524 Central Ave Sw","radius_m":300.0}},{"type":"Feature","geometry":{"type":"Point","coordinates":[-106.73482,35.20414]},"properties":{"name":"Coyote Willow Family School","city":"Albuquerque","street":"7125 Irving Blvd Nw","radius_m":300.0}},{"type":"Feature","geometry":{"type":"Point","coordinates":[-106.75369,35.10041]},"properties":{"name":"Tres Volcanes Community Collaborative School","city":"Albuquerque","street":"9601 Tierra Pintada Nw","radius_m":300.0}},{"type":"Feature","geometry":{"type":"Point","coordinates":[-106.58497,35.10455]},"properties":{"name":"Ecademy K-8","city":"Albuquerque","street":"5300 Cutler Ne","radius_m":300.0}},{"type":"Feature","geometry":{"type":"Point","coordinates":[-106.57816,35.06388]},"properties":{"name":"Voz Collegiate Preparatory Charter School","city":"Albuquerque","street":"955 San Pedro Se","radius_m":300.0}},{"type":"Feature","geometry":{"type":"Point","coordinates":[-106.58497,35.10455]},"properties":{"name":"Connected","city":"Albuquerque","street":"5300 Cutler Ne","radius_m":300.0}},{"type":"Feature","geometry":{"type":"Point","coordinates":[-106.6348,35.17392]},"properties":{"name":"North Valley Academy","city":"Los Ranchos De Albuquerque","street":"7939 4Th Street Nw","radius_m":300.0}},{"type":"Feature","geometry":{"type":"Point","coordinates":[-106.72304,35.11722]},"properties":{"name":"Horizon Academy West","city":"Albuquerque","street":"3021 Todos Santos Nw","radius_m":300.0}},{"type":"Feature","geometry":{"type":"Point","coordinates":[-106.59181,35.17103]},"properties":{"name":"Cottonwood Classical Prep","city":"Albuquerque","street":"7801 Jefferson St Ne","radius_m":300.0}},{"type":"Feature","geometry":{"type":"Point","coordinates":[-106.59464,35.07993]},"properties":{"name":"New Mexico Academy For The Media Arts","city":"Albuquerque","street":"4401 Central Ave Ne Bldg 2","radius_m":300.0}},{"type":"Feature","geometry":{"type":"Point","coordinates":[-106.58388,35.05967]},"properties":{"name":"Cesar Chavez Community  School","city":"Albuquerque","street":"1325 Palomas Dr Se","radius_m":300.0}},{"type":"Feature","geometry":{"type":"Point","coordinates":[-105.94725,35.68545]},"properties":{"name":"Nm School For The Arts","city":"Santa Fe","street":"500 Montezuma Avenue","radius_m":300.0}},{"type":"Feature","geometry":{"type":"Point","coordinates":[-106.6421,35.0563]},"properties":{"name":"South Valley Prep","city":"Albuquerque","street":"2551 Karsten Ct Se","radius_m":300.0}},{"type":"Feature","geometry":{"type":"Point","coordinates":[-106.49889,35.08699]},"properties":{"name":"Abq School Of Excellence","city":"Albuquerque","street":"13201 Lomas Blvd Ne","radius_m":300.0}},{"type":"Feature","geometry":{"type":"Point","coordinates":[-106.65365,35.0911]},"properties":{"name":"Abq Sign Language Academy","city":"Albuquerque","street":"620 Lomas Blvd Nw","radius_m":300.0}},{"type":"Feature","geometry":{"type":"Point","coordinates":[-106.66464,35.10167]},"properties":{"name":"Tierra Adentro","city":"Albuquerque","street":"1781 Bellemah Ave","radius_m":300.0}},{"type":"Feature","geometry":{"type":"Point","coordinates":[-105.99926,35.60564]},"properties":{"name":"The Masters Program","city":"Santa Fe","street":"6401 Richards Ave","radius_m":300.0}},{"type":"Feature","geometry":{"type":"Point","coordinates":[-106.64612,35.25845]},"properties":{"name":"The Ask Academy","city":"Rio Rancho","street":"4550 Sundt Rd Ne","radius_m":300.0}},{"type":"Feature","geometry":{"type":"Point","coordinates":[-106.63323,35.071]},"properties":{"name":"Albuquerque Institute Of Math & Science","city":"Albuquerque","street":"933 Bradbury Se","radius_m":300.0}},{"type":"Feature","geometry":{"type":"Point","coordinates":[-106.65206,35.08384]},"properties":{"name":"Amy Biehl Charter High School","city":"Albuquerque","street":"123 4Th St Sw","radius_m":300.0}},{"type":"Feature","geometry":{"type":"Point","coordinates":[-106.72476,35.11069]},"properties":{"name":"Albuquerque Bilingual Academy","city":"Albuquerque","street":"7500 La Morada Nw","radius_m":300.0}},{"type":"Feature","geometry":{"type":"Point","coordinates":[-106.66037,35.1413]},"properties":{"name":"Montessori Elementary School","city":"Albuquerque","street":"1730 Montano Rd Nw","radius_m":300.0}},{"type":"Feature","geometry":{"type":"Point","coordinates":[-106.52559,35.11687]},"properties":{"name":"Renaissance Academy Charter School","city":"Albuquerque","street":"10301 Candelaria Rd Ne","radius_m":300.0}},{"type":"Feature","geometry":{"type":"Point","coordinates":[-106.52559,35.11687]},"properties":{"name":"Northpoint Charter School","city":"Albuquerque","street":"10301 Candelaria Rd Ne","radius_m":300.0}},{"type":"Feature","geometry":{"type":"Point","coordinates":[-106.58827,35.14519]},"properties":{"name":"The Great Academy","city":"Albuquerque","street":"6001-A San Mateo Blvd Ne","radius_m":300.0}},{"type":"Feature","geometry":{"type":"Point","coordinates":[-106.62122,35.06271]},"properties":{"name":"Mission Achievement And Success 1.0","city":"Albuquerque","street":"1718 Yale Blvd Se","radius_m":300.0}},{"type":"Feature","geometry":{"type":"Point","coordinates":[-106.70347,35.06159]},"properties":{"name":"Mission Achievement And Success 2.0","city":"Albuquerque","street":"1255 Old Coors Rd Sw","radius_m":300.0}},{"type":"Feature","geometry":{"type":"Point","coordinates":[-106.79393,35.13458]},"properties":{"name":"Albuquerque Aviation Academy","city":"Albuquerque","street":"4100 Aerospace Pkwy Bw","radius_m":300.0}},{"type":"Feature","geometry":{"type":"Point","coordinates":[-106.18957,35.07756]},"properties":{"name":"Estancia Valley Classical Academy","city":"Edgewood","street":"110 State Hwy 344","radius_m":300.0}},{"type":"Feature","geometry":{"type":"Point","coordinates":[-106.72084,35.62072]},"properties":{"name":"Walatowa Charter High","city":"Jemez Pueblo","street":"147 Bear Head Canyon","radius_m":300.0}},{"type":"Feature","geometry":{"type":"Point","coordinates":[-106.59053,35.16394]},"properties":{"name":"Explore Academy","city":"Albuquerque","street":"5100 Masthead St Ne","radius_m":300.0}},{"type":"Feature","geometry":{"type":"Point","coordinates":[-106.00981,35.62482]},"properties":{"name":"Monte Del Sol Charter","city":"Santa Fe","street":"4157 Walking Rain Rd","radius_m":300.0}},{"type":"Feature","geometry":{"type":"Point","coordinates":[-106.05298,35.53606]},"properties":{"name":"Turquoise Trail Charter School","city":"Santa Fe","street":"13A San Marcos Loop","radius_m":300.0}},{"type":"Feature","geometry":{"type":"Point","coordinates":[-106.57837,35.32695]},"properties":{"name":"Sandoval Academy Of Bilingual Education","city":"Rio Rancho","street":"4321 Fulcrum Way Ne Suite A","radius_m":300.0}},{"type":"Feature","geometry":{"type":"Point","coordinates":[-105.99916,35.62494]},"properties":{"name":"Tierra Encantada Charter School","city":"Santa Fe","street":"4601 Mission Bend","radius_m":300.0}},{"type":"Feature","geometry":{"type":"Point","coordinates":[-106.54852,35.18404]},"properties":{"name":"Altura Preparatory School","city":"Albuquerque","street":"8650 Alameda Blvd Bldg 2B","radius_m":300.0}},{"type":"Feature","geometry":{"type":"Point","coordinates":[-106.68184,35.06436]},"properties":{"name":"Albuquerque Collegiate Charter School","city":"Albuquerque","street":"1720 Bridge Blvd Sw Suite #101","radius_m":300.0}},{"type":"Feature","geometry":{"type":"Point","coordinates":[-106.7325,35.04443]},"properties":{"name":"Solare Collegiate Charter School","city":"Albuquerque","street":"1623 La Vega Dr Sw","radius_m":300.0}},{"type":"Feature","geometry":{"type":"Point","coordinates":[-106.59259,35.13153]},"properties":{"name":"Aces Technical Charter School","city":"Albuquerque","street":"4501 Montgomery Blvd Ne","radius_m":300.0}},{"type":"Feature","geometry":{"type":"Point","coordinates":[-106.59923,35.1051]},"properties":{"name":"21St Century Public Academy","city":"Albuquerque","street":"4300 Cutler Ave. Ne","radius_m":300.0}},{"type":"Feature","geometry":{"type":"Point","coordinates":[-105.91918,35.62765]},"properties":{"name":"Thrive Community School","city":"Santa Fe","street":"7300 Old Santa Fe Trail","radius_m":300.0}},{"type":"Feature","geometry":{"type":"Point","coordinates":[-106.70531,35.05843]},"properties":{"name":"Rio Grande Academy Of Fine Arts","city":"Albuquerque","street":"1401 Old Coors Rd Sw","radius_m":300.0}},{"type":"Feature","geometry":{"type":"Point","coordinates":[-106.48308,35.3788]},"properties":{"name":"Algodones Elementary","city":"Algodones","street":"1300 Hwy 313","radius_m":300.0}},{"type":"Feature","geometry":{"type":"Point","coordinates":[-106.54157,35.321]},"properties":{"name":"Bernalillo High","city":"Bernalillo","street":"250 Isidro Sanchez Rd","radius_m":300.0}},{"type":"Feature","geometry":{"type":"Point","coordinates":[-106.5526,35.31249]},"properties":{"name":"Spartan Learning Academy","city":"Bernalillo","street":"485 Camino Don Tomas","radius_m":300.0}},{"type":"Feature","geometry":{"type":"Point","coordinates":[-106.32326,35.58018]},"properties":{"name":"Cochiti Elementary","city":"Pena Blanca","street":"800 Quail Hill Trail","radius_m":300.0}},{"type":"Feature","geometry":{"type":"Point","coordinates":[-106.42651,35.31064]},"properties":{"name":"Placitas Elementary","city":"Bernalillo","street":"5 Calle Del Carbon","radius_m":300.0}},{"type":"Feature","geometry":{"type":"Point","coordinates":[-106.55511,35.31297]},"properties":{"name":"Bernalillo Elementary","city":"Bernalillo","street":"301 Calle Del Carbon","radius_m":300.0}},{"type":"Feature","geometry":{"type":"Point","coordinates":[-106.3181,35.48148]},"properties":{"name":"Santo Domingo Elementary","city":"Santo Domingo Pueblo","street":"100 Hwy 22 West","radius_m":300.0}},{"type":"Feature","geometry":{"type":"Point","coordinates":[-106.3181,35.48148]},"properties":{"name":"Santo Domingo Middle","city":"Santo Domingo Pueblo","street":"100 Hwy 22 West","radius_m":300.0}},{"type":"Feature","geometry":{"type":"Point","coordinates":[-106.32326,35.58018]},"properties":{"name":"Cochiti Middle","city":"Pena Blanca","street":"800 Quail Hill Trail","radius_m":300.0}},{"type":"Feature","geometry":{"type":"Point","coordinates":[-106.54229,35.31332]},"properties":{"name":"Wd Carroll Elementary","city":"Bernalillo","street":"842 Camino Don Tomas","radius_m":300.0}},{"type":"Feature","geometry":{"type":"Point","coordinates":[-106.54229,35.31332]},"properties":{"name":"La Escuelita Early Childhood","city":"Bernalillo","street":"301 Calle De Escuela","radius_m":300.0}},{"type":"Feature","geometry":{"type":"Point","coordinates":[-106.73675,35.65559]},"properties":{"name":"Jemez Valley Elementary","city":"Jemez Pueblo","street":"8501 Hwy 4","radius_m":300.0}},{"type":"Feature","geometry":{"type":"Point","coordinates":[-106.73713,35.65802]},"properties":{"name":"Jemez Valley High","city":"Jemez Pueblo","street":"8501 Hwy 4","radius_m":300.0}},{"type":"Feature","geometry":{"type":"Point","coordinates":[-106.73675,35.65559]},"properties":{"name":"Jemez Valley Middle","city":"Jemez Pueblo","street":"8501 Hwy 4","radius_m":300.0}},{"type":"Feature","geometry":{"type":"Point","coordinates":[-106.31121,35.8955]},"properties":{"name":"Aspen Elementary","city":"Los Alamos","street":"2182 33Rd St","radius_m":300.0}},{"type":"Feature","geometry":{"type":"Point","coordinates":[-106.2819,35.90304]},"properties":{"name":"Barranca Mesa Elementary","city":"Los Alamos","street":"57 Loma Del Escolar","radius_m":300.0}},{"type":"Feature","geometry":{"type":"Point","coordinates":[-106.19813,35.82736]},"properties":{"name":"Chamisa Elementary","city":"White Rock","street":"301 Meadow Ln","radius_m":300.0}},{"type":"Feature","geometry":{"type":"Point","coordinates":[-106.29634,35.89403]},"properties":{"name":"Los Alamos Middle","city":"Los Alamos","street":"2101 Hawk Dr","radius_m":300.0}},{"type":"Feature","geometry":{"type":"Point","coordinates":[-106.31658,35.88644]},"properties":{"name":"Los Alamos High","city":"Los Alamos","street":"1300 Diamond Dr","radius_m":300.0}},{"type":"Feature","geometry":{"type":"Point","coordinates":[-106.32345,35.89801]},"properties":{"name":"Mountain Elementary","city":"Los Alamos","street":"2280 North Rd","radius_m":300.0}},{"type":"Feature","geometry":{"type":"Point","coordinates":[-106.21333,35.82171]},"properties":{"name":"Pinon Elementary","city":"White Rock","street":"90 Grand Canyon Dr","radius_m":300.0}},{"type":"Feature","geometry":{"type":"Point","coordinates":[-106.31653,35.88729]},"properties":{"name":"Topper Freshman Academy","city":"Los Alamos","street":"3800 Canyon Drive","radius_m":300.0}},{"type":"Feature","geometry":{"type":"Point","coordinates":[-106.03999,34.98533]},"properties":{"name":"Moriarty Elementary","city":"Moriarty","street":"2015 School Loop","radius_m":300.0}},{"type":"Feature","geometry":{"type":"Point","coordinates":[-106.04455,34.99052]},"properties":{"name":"Moriarty High","city":"Moriarty","street":"200 Center St","radius_m":300.0}},{"type":"Feature","geometry":{"type":"Point","coordinates":[-106.0436,34.98908]},"properties":{"name":"Moriarty Middle","city":"Moriarty","street":"200 Center St","radius_m":300.0}},{"type":"Feature","geometry":{"type":"Point","coordinates":[-106.19311,35.14466]},"properties":{"name":"South Mountain Elementary","city":"Moriarty","street":"577 State Rd 344","radius_m":300.0}},{"type":"Feature","geometry":{"type":"Point","coordinates":[-106.24547,35.07888]},"properties":{"name":"Route 66 Elementary","city":"Moriarty","street":"805 Barton Rd","radius_m":300.0}},{"type":"Feature","geometry":{"type":"Point","coordinates":[-106.19366,35.09723]},"properties":{"name":"Edgewood Middle","city":"Moriarty","street":"17 Venus Rd West","radius_m":300.0}},{"type":"Feature","geometry":{"type":"Point","coordinates":[-106.11979,35.0336]},"properties":{"name":"Mesd Early Childhood Center","city":"Moriarty","street":"2422 E. Highway 333","radius_m":300.0}},{"type":"Feature","geometry":{"type":"Point","coordinates":[-106.06458,35.87354]},"properties":{"name":"Pablo Roybal Elementary","city":"Santa Fe","street":"1574 State Rd 502","radius_m":300.0}},{"type":"Feature","geometry":{"type":"Point","coordinates":[-106.06559,35.87699]},"properties":{"name":"Pojoaque High","city":"Santa Fe","street":"1574 State Road 502","radius_m":300.0}},{"type":"Feature","geometry":{"type":"Point","coordinates":[-106.02481,35.89107]},"properties":{"name":"Pojoaque Middle","city":"Santa Fe","street":"1574 State Road 502","radius_m":300.0}},{"type":"Feature","geometry":{"type":"Point","coordinates":[-106.06559,35.87406]},"properties":{"name":"Pojoaque Intermediate","city":"Santa Fe","street":"1574 State Road 502","radius_m":300.0}},{"type":"Feature","geometry":{"type":"Point","coordinates":[-106.02481,35.89107]},"properties":{"name":"Sixth Grade Academy","city":"Pojoaque","street":"1574 State Rd 502","radius_m":300.0}},{"type":"Feature","geometry":{"type":"Point","coordinates":[-105.92957,35.68042]},"properties":{"name":"Acequia Madre Elementary","city":"Santa Fe","street":"700 Acequia Madre St","radius_m":300.0}},{"type":"Feature","geometry":{"type":"Point","coordinates":[-106.03953,35.6513]},"properties":{"name":"El Camino Real Academy Community","city":"Santa Fe","street":"2500 S. Meadows","radius_m":300.0}},{"type":"Feature","geometry":{"type":"Point","coordinates":[-105.91216,35.67353]},"properties":{"name":"Atalaya Elementary","city":"Santa Fe","street":"721 Camino Cabra","radius_m":300.0}},{"type":"Feature","geometry":{"type":"Point","coordinates":[-105.94265,35.69176]},"properties":{"name":"Carlos Gilbert Elementary","city":"Santa Fe","street":"300 Griffin St","radius_m":300.0}},{"type":"Feature","geometry":{"type":"Point","coordinates":[-105.96682,35.64396]},"properties":{"name":"Chaparral Elementary","city":"Santa Fe","street":"2451 Avenida Chaparral","radius_m":300.0}},{"type":"Feature","geometry":{"type":"Point","coordinates":[-105.94929,35.66441]},"properties":{"name":"E.J. Martinez Elementary","city":"Santa Fe","street":"401 North San Mateo","radius_m":300.0}},{"type":"Feature","geometry":{"type":"Point","coordinates":[-105.9809,35.65294]},"properties":{"name":"Francis X. Nava Elementary","city":"Santa Fe","street":"2655 Siringo Rd","radius_m":300.0}},{"type":"Feature","geometry":{"type":"Point","coordinates":[-105.95598,35.68935]},"properties":{"name":"Gonzales Elementary","city":"Santa Fe","street":"851 West Alameda","radius_m":300.0}},{"type":"Feature","geometry":{"type":"Point","coordinates":[-105.98866,35.64584]},"properties":{"name":"Kearny Elementary","city":"Santa Fe","street":"901 Avenida Campanas","radius_m":300.0}},{"type":"Feature","geometry":{"type":"Point","coordinates":[-105.97956,35.66415]},"properties":{"name":"Salazar Elementary","city":"Santa Fe","street":"1231 Apache Ave.","radius_m":300.0}},{"type":"Feature","geometry":{"type":"Point","coordinates":[-105.97134,35.65074]},"properties":{"name":"Santa Fe High","city":"Santa Fe","street":"2100 Yucca Rd","radius_m":300.0}},{"type":"Feature","geometry":{"type":"Point","coordinates":[-105.93043,35.76119]},"properties":{"name":"Tesuque Elementary","city":"Tesuque","street":"1555 Bishops Lodge Rd","radius_m":300.0}},{"type":"Feature","geometry":{"type":"Point","coordinates":[-105.94031,35.6797]},"properties":{"name":"Wood-Gormley Elementary","city":"Santa Fe","street":"141 East Booth St","radius_m":300.0}},{"type":"Feature","geometry":{"type":"Point","coordinates":[-106.03325,35.62905]},"properties":{"name":"Edward Ortiz Middle","city":"Santa Fe","street":"4164 South Meadows","radius_m":300.0}},{"type":"Feature","geometry":{"type":"Point","coordinates":[-105.99364,35.63297]},"properties":{"name":"Pinon Elementary","city":"Santa Fe","street":"2921 Camino Caballos","radius_m":300.0}},{"type":"Feature","geometry":{"type":"Point","coordinates":[-105.90968,35.53851]},"properties":{"name":"El Dorado Community School","city":"Santa Fe","street":"2 Avenida Torreon","radius_m":300.0}},{"type":"Feature","geometry":{"type":"Point","coordinates":[-106.03556,35.63527]},"properties":{"name":"R.M. Sweeney Elementary","city":"Santa Fe","street":"501 Airport Rd","radius_m":300.0}},{"type":"Feature","geometry":{"type":"Point","coordinates":[-106.04229,35.62313]},"properties":{"name":"Capital High","city":"Santa Fe","street":"4851 Paseo Del Sol","radius_m":300.0}},{"type":"Feature","geometry":{"type":"Point","coordinates":[-106.04061,35.62718]},"properties":{"name":"Cesar Chavez Elementary","city":"Santa Fe","street":"6251 Jaguar Dr","radius_m":300.0}},{"type":"Feature","geometry":{"type":"Point","coordinates":[-106.01995,35.63779]},"properties":{"name":"Desert Sage Academy","city":"Santa Fe","street":"2504 Camino Entrada","radius_m":300.0}},{"type":"Feature","geometry":{"type":"Point","coordinates":[-106.0123,35.5839]},"properties":{"name":"Academy For Technology & Classics","city":"Santa Fe","street":"74 A Van Nu Po Rd","radius_m":300.0}},{"type":"Feature","geometry":{"type":"Point","coordinates":[-106.03254,35.64365]},"properties":{"name":"Ramirez Thomas Elementary","city":"Santa Fe","street":"610 Alta Vista","radius_m":300.0}},{"type":"Feature","geometry":{"type":"Point","coordinates":[-105.96262,35.68422]},"properties":{"name":"Aspen Community School","city":"Santa Fe","street":"450 La Madera","radius_m":300.0}},{"type":"Feature","geometry":{"type":"Point","coordinates":[-106.00876,35.60033]},"properties":{"name":"Amy Biehl Community School At Rancho Viejo","city":"Santa Fe","street":"310 Avienda Del Sur","radius_m":300.0}},{"type":"Feature","geometry":{"type":"Point","coordinates":[-105.97159,35.67567]},"properties":{"name":"Mandela International Magnet (Mims)","city":"Santa Fe","street":"1604 Agua Fria","radius_m":300.0}},{"type":"Feature","geometry":{"type":"Point","coordinates":[-106.03885,35.62062]},"properties":{"name":"Nina Otero Community School","city":"Santa Fe","street":"5901 Herrera Drive","radius_m":300.0}},{"type":"Feature","geometry":{"type":"Point","coordinates":[-105.96784,35.64666]},"properties":{"name":"Early College Opportunities","city":"Santa Fe","street":"2301 W. Zia Rd.","radius_m":300.0}},{"type":"Feature","geometry":{"type":"Point","coordinates":[-105.95054,35.64662]},"properties":{"name":"Milagro Middle","city":"Santa Fe","street":"351 W. Zia Road","radius_m":300.0}},{"type":"Feature","geometry":{"type":"Point","coordinates":[-106.00406,35.65963]},"properties":{"name":"Nye Early Childhood","city":"Santa Fe","street":"3160 Agua Fria St.","radius_m":300.0}},{"type":"Feature","geometry":{"type":"Point","coordinates":[-106.61204,35.27633]},"properties":{"name":"Explore Academy - Rio Rancho","city":"Rio Rancho","street":"6090 Zenith Court","radius_m":300.0}},{"type":"Feature","geometry":{"type":"Point","coordinates":[-106.73244,35.6143]},"properties":{"name":"San Diego Riverside","city":"Jemez Pueblo","street":"504 Mission Rd","radius_m":300.0}},{"type":"Feature","geometry":{"type":"Point","coordinates":[-106.11818,35.89591]},"properties":{"name":"San Ildefonso Day School","city":"San Ildefonso Pueblo","street":"36 Tunyo Po","radius_m":300.0}},{"type":"Feature","geometry":{"type":"Point","coordinates":[-105.97262,35.79968]},"properties":{"name":"Te Tsu Geh Oweenge Day School","city":"Tesuque Pueblo","street":"Tesuque Pueblo","radius_m":300.0}},{"type":"Feature","geometry":{"type":"Point","coordinates":[-106.70818,35.50989]},"properties":{"name":"T'Siya Day School","city":"Zia Pueblo","street":"1000 Borrego Canyon Rd","radius_m":300.0}},{"type":"Feature","geometry":{"type":"Point","coordinates":[-105.96634,35.67193]},"properties":{"name":"Santa Fe Indian School","city":"Santa Fe","street":"1501 Cerrillos Road","radius_m":300.0}},{"type":"Feature","geometry":{"type":"Point","coordinates":[-106.73143,35.61024]},"properties":{"name":"Jemez Day School","city":"Jemez Pueblo","street":"243 Day School Rd","radius_m":300.0}},{"type":"Feature","geometry":{"type":"Point","coordinates":[-106.43477,35.4046]},"properties":{"name":"San Felipe Pueblo Elementary School","city":"San Felipe Pueblo","street":"711 Main Rd","radius_m":300.0}}]}